PK;NOMBRE;DESCRIPCION-ENTIDAD;HORARIO;EQUIPAMIENTO;TRANSPORTE;DESCRIPCION;ACCESIBILIDAD;CONTENT-URL;NOMBRE-VIA;CLASE-VIAL;TIPO-NUM;NUM;PLANTA;PUERTA;ESCALERAS;ORIENTACION;LOCALIDAD;PROVINCIA;CODIGO-POSTAL;BARRIO;DISTRITO;COORDENADA-X;COORDENADA-Y;LATITUD;LONGITUD;TELEFONO;FAX;EMAIL;TIPO
2071;Arte P�blico (Museo al Aire Libre de la Castellana);;;; Metro: Rub�n Dar�o (l�nea 5)  Bus: 5, 14, 27, 45, 150 ;;1;http://www.madrid.es/vgn-ext-templating/v/index.jsp?vgnextchannel=9e4c43db40317010VgnVCM100000dc0ca8c0RCRD&vgnextoid=eca9ef4d7f71c010VgnVCM1000000b205a0aRCRD;CASTELLANA;PASEO;V;40;;;;;MADRID;MADRID;28046;CASTELLANA;SALAMANCA;441788;4476277;40.433219398671156;-3.6876122680805956;917 011 863  / 915 782 722 (informaci�n en Museo de Historia);;smuseosm@madrid.es;/contenido/entidadesYorganismos/MonumentosEdificiosArtisticos
4949641;Casa - Museo del Ratoncito P�rez; La residencia de la familia P�rez est�  situada en los s�tanos de la confiter�a Prasi,  en el n�mero ocho de la calle del Arenal, seg�n cita Luis Coloma. ;  Lunes  de 17 a 20 horas.  De martes a viernes de 11 a 14 horas y de 17 a 20 horas.  S�bados de 11 a 15 horas y de 16 a 20 horas (horario orientativo, consultar disponiblidad en la  web del Museo ).  Domingos y festivos de 12 a 18 horas.  ;; Metro: Sol (l�neas: 1, 2 y 3)  Bus: 3, 50 ; Venta de entradas directamente en el Museo   Recomendado a partir de los 5 a�os  Se recomienda sacar la entrada con antelaci�n pues el aforo es limitado. ;0;http://www.madrid.es/vgn-ext-templating/v/index.jsp?vgnextchannel=9e4c43db40317010VgnVCM100000dc0ca8c0RCRD&vgnextoid=990950e86d4ca110VgnVCM2000000c205a0aRCRD;ARENAL;CALLE;V;8;1�;Local 15 - 16;;;MADRID;MADRID;28013;SOL;CENTRO;440254;4474494;40.41704834412296;-3.7055288844865233;915 226 968;;;/contenido/entidadesYorganismos/Museos
4847190;Casa Museo Lope de Vega;; Para la visita es  imprescindible reserva anticipada  en:  casamuseolopedevega@madrid.org  o en el tel�fono: 914 299 216, en horario del museo   De martes a domingo de 10 a 15 horas. �ltima visita a las 14 horas.  Cerrado los lunes, d�as 1 y 6 de enero, 5 de abril, 1 de mayo y 24, 25 y 31 de diciembre y dos festivos locales.  Este horario puede sufrir alteraciones por actividades extraordinarias que se celebran en este espacio. ;; Metro: Ant�n Mart�n (l�nea 1)   Bus: 6, 9, 10, 14, 26, 27, 32, 34, 37, 45, 57 ; La visita se realiza en grupos de un m�ximo de 10 personas acompa�ados por un gu�a. Comienzan cada media hora y tienen una duraci�n aproximada de 45 minutos (�ltima visita a las 14 horas).   Idiomas: espa�ol, ingl�s y franc�s. ;0;http://www.madrid.es/vgn-ext-templating/v/index.jsp?vgnextchannel=9e4c43db40317010VgnVCM100000dc0ca8c0RCRD&vgnextoid=4eff8c46145e8110VgnVCM2000000c205a0aRCRD;CERVANTES;CALLE;V;11;;;;;MADRID;MADRID;28014;CORTES;CENTRO;440935;4474190;40.414358466555235;-3.6974741545860015;914 299 216;914 292 601;casamuseolopedevega@madrid.org;/contenido/entidadesYorganismos/Museos
5682031;Castillo de la Alameda;"El edificio est� incorporado al sistema &quot;museosdemadrid&quot; donde se realizan talleres para escolares y actividades en verano.";  De abril a septiembre: s�bados, domingos y festivos de 10 a 21 horas  De octubre a marzo: s�bados, domingos y festivos de 10 a 18 horas  Cerrado los d�as 1 de enero, 1 de mayo y 25 de diciembre  ;  Accesibilidad    Rampas de acceso  Servicios para minusv�lidos  Informaci�n en Braille para invidentes  ; Metro: Alameda de Osuna (l�nea 5), El Capricho (l�nea 5)  Autobuses: 101, 105, 112, 114, 115 y 151 ;  Descripci�n monumental   El monumento est� clasificado como singular por el  PGOUM . Es uno de los escasos vestigios de la arquitectura militar del pasado siglo  XV , y uno de los pocos castillos que ha sobrevivido al paso del tiempo y resurge ahora, tras un minucioso proceso de restauraci�n y conversi�n en Museo.  El lugar en el que se alza el Castillo de la Alameda o de Barajas, es un espacio donde est�n representadas todas las etapas de la historia de este territorio, situado entre Madrid y el valle del Jarama. Bajo �l y su entorno, existen restos de asentamientos antiguos desde la Edad del Bronce hasta la �poca Romana.  Entre las aldeas medievales de la Alameda y Barajas, dentro del alfoz de Madrid, se construy�, en el siglo  XV , el castillo se�orial, que en el siglo  XVI , se transform� en un palacio renacentista. Entre los siglos  XVI  y  XVIII , se alzan en esta zona varias villas de veraneo de la aristocracia madrile�a. Entre ellas, el cercano palacete de los Duques de Osuna con su parque de El Capricho. Desde entonces, esta �rea se conoce con el nombre de la Alameda de Osuna.  La Guerra Civil tambi�n se deja sentir en este lugar, donde estaba situado el centro de mando del general Miaja, en la retaguardia del frente del Jarama. El mando de las operaciones estaba en el b�nker de El Capricho, pero el castillo se emple� como fort�n y a su lado existe un nido de ametralladoras.  La reciente urbanizaci�n del barrio ha respetado este lugar. Un parque p�blico conserva dentro de �l los vestigios de todas estas �pocas: el poblado prehist�rico, el castillo luego convertido en palacio, el cementerio y el pante�n y el nido de ametralladoras.  El castillo y su entorno han sido objeto de varias campa�as de excavaciones arqueol�gicas desde 1996, pero hasta ahora estas actuaciones no hab�an tenido continuidad ni hab�an constituido el germen de un proyecto que desembocase en la recuperaci�n del yacimiento. ;0;http://www.madrid.es/vgn-ext-templating/v/index.jsp?vgnextchannel=9e4c43db40317010VgnVCM100000dc0ca8c0RCRD&vgnextoid=fe43c4be8e688210VgnVCM1000000b205a0aRCRD;ANTONIO SANCHA;CALLE;V;1;;;;;MADRID;MADRID;28042;ALAMEDA DE OSUNA;BARAJAS;449807;4479009;40.45835460563491;-3.5932903820278788;"913 667 415                                     
";;castilloalameda@madrid.es;/contenido/entidadesYorganismos/MonumentosEdificiosArtisticos
2064;Cas�n del Buen Retiro; Edificio que forma parte del Museo Nacional del Prado, donde pueden consultarse fondos de la Biblioteca, del Archivo y del Servicio de Documentaci�n de la colecci�n del Museo y de otras fuentes relativas a la historia del arte. ;  Ma�anas    De lunes a jueves, de 9 a 15 horas. (Servicio de libros y otros materiales hasta las 14:30 horas)   Viernes, de 9 a 14:30 horas. (Servicio de libros y otros materiales hasta las 14 horas)     Tardes.  Lunes y mi�rcoles, de 15 a 18 horas. (Servicio de libros y otros materiales hasta las 17:30 horas)   Horario de verano     Desde el 16 de junio al 15 de septiembre  Lunes a viernes, de 9 a 14:30 horas   ;; Metro: Atocha (L�nea 1)  Bus: 19, 10, 14, 27, 34, 37, 45  Renfe: Atocha ;  Descripci�n monumental   El Cas�n o Sal�n de Baile es el �nico volumen que permanece del antiguo Palacio del buen Retiro, ejecutado en 1637 con un proyecto de Alonso Carbonel. A�n se conserva la b�veda de ca�on con lunetas, pintada al fresco por Lucas Jord�n en 1692 con la Alegor�a del Tois�n de Oro. Su fachada principal, a poniente, arrasada la primitiva en 1886 por un cicl�n, es de Vel�zquez Bosco. La �ltima rehabilitaci�n ha sido realizada por Jaime Torruell.   Otras direcciones de Correo electr�nico:    documentacion@museodelprado.es    archivo@museodelprado.es  ;0;http://www.madrid.es/vgn-ext-templating/v/index.jsp?vgnextchannel=9e4c43db40317010VgnVCM100000dc0ca8c0RCRD&vgnextoid=f0443d0b5e71c010VgnVCM1000000b205a0aRCRD;ALFONSO XII;CALLE;V;28;;;;;MADRID;MADRID;28014;LOS JERONIMOS;RETIRO;441635;4474285;40.415263749471535;-3.689232811717636;902 107 077;;biblioteca@museodelprado.es;/contenido/entidadesYorganismos/MonumentosEdificiosArtisticos
103331;Centro Social y Cultural la Casa Encendida; Edificio de car�cter monumental. De estilo neomud�jar, fue dise�ado por el arquitecto Fernando Arb�s e inaugurado en el a�o 1913. Cuenta con m�s de 6.000 metros cuadrados de instalaciones divididas en 4 plantas y una azotea. ;  De lunes a domingo de 10 a 22 horas (todos los d�as del a�o, excepto festividades nacionales y de la Comunidad de Madrid)  Exposiciones: de 10 a 21:45 horas  ;   Biblioteca  (consulta cat�logo  http://catalogo.bibliotecas.obrasocialcajamadrid.es/ )   Sala de consulta y Hemeroteca: de lunes a domingos, de 10 a 21:15 horas  Mediateca y Sala de trabajo Ofim�tica: de lunes a domingos, de 10 a 21:15 horas  Biblioteca joven: de lunes a viernes, de 10 a 20:30, s�bados y domingos de 10 a 13:30  Bebeteca: s�bados y domingos de 10 a 13:30 horas     Estudio multimedia : cuenta con equipos profesionales para la edici�n de video con Final Cut Studio, Premiere, etc. Su uso tendr� un precio de cinco a ocho euros por turno de cinco horas dependiendo del tipo de asistencia t�cnica.   Laboratorio de radio:  dispone de un equipo completo de grabaci�n y equipamiento profesional. Su uso tendr� un precio de diez euros por turnos de cinco horas.   Laboratorio fotogr�fico    Tienda solidaria:  consultar horario   Cafeter�a:  todos los d�as, excepto festivos, de 10 a 21:45 horas  ; Metro: Embajadores (l�nea 3), Lavapies (l�nea 3), Atocha (l�nea 1)   Bus: 27, 34, 36, 41, 68, 69, 119   Renfe: Embajadores ;;1;http://www.madrid.es/vgn-ext-templating/v/index.jsp?vgnextchannel=9e4c43db40317010VgnVCM100000dc0ca8c0RCRD&vgnextoid=c27f8899fc81c010VgnVCM1000000b205a0aRCRD;VALENCIA;RONDA;V;2;;;;;MADRID;MADRID;28012;EMBAJADORES;CENTRO;440732;4473259;40.40595710517701;-3.699779793558763;"902 430 322                                 
";915 063 876;casaencendida@cajamadrid.es;/contenido/entidadesYorganismos/MonumentosEdificiosArtisticos
3350;Claustro de San Jer�nimo el Real (Los Jer�nimos);;;;Bus: 10 , 14 , 19 , 27 , 34 , 37 , 45;;0;http://www.madrid.es/vgn-ext-templating/v/index.jsp?vgnextchannel=9e4c43db40317010VgnVCM100000dc0ca8c0RCRD&vgnextoid=8f947b503a71c010VgnVCM1000000b205a0aRCRD;MORETO;CALLE;V;4;;;;;MADRID;MADRID;28014;LOS JERONIMOS;RETIRO;441524;4474184;40.414346084679714;-3.6905317543061407;"91 420 35 78&#13;
";;;/contenido/entidadesYorganismos/MonumentosEdificiosArtisticos
6469186;Ermita de San Antonio de la Florida (Museo); Ermita dedicada a San Antonio de Padua y peque�o museo. Las pinturas murales que la decoran son de Francisco de Goya. Alberga los restos mortales del artista desde 1919. Para preservar sus pinturas, en 1929 se traslad� el culto a una ermita gemela construida a su lado, dejando el edificio original como museo. ;  De martes a domingos y festivos de 9:30 a 20 horas.   Cerrado  los lunes, incluidos festivos y d�as 1 de enero, 1 de mayo y 25 de diciembre.   �ltimo pase de visita:  20 minutos antes del cierre (el desalojo de las salas comenzar� 10 minutos antes)   Por motivos de conservaci�n, el aforo m�ximo es de 50 personas en el interior de la capilla.  Este horario y la apertura de salas pueden sufrir modificaciones, por favor, conf�rmelo en el tel�fono de informaci�n del museo.  ; Tienda, en la que se pueden adquirir las gu�as y publicaciones sobre la ermita editadas por el Museo y otros organismos p�blicos, as� como cat�logos y publicaciones de instituciones culturales del Ayuntamiento de Madrid. ; Metro: Pr�ncipe P�o (l�neas 5, 10 y ramal �pera - Pr�ncipe P�o)  Bus: 41, 46 y 75 (Intercambiador Pr�ncipe P�o)  Renfe: Pr�ncipe P�o ;;0;http://www.madrid.es/vgn-ext-templating/v/index.jsp?vgnextchannel=9e4c43db40317010VgnVCM100000dc0ca8c0RCRD&vgnextoid=75950204770e7310VgnVCM2000000c205a0aRCRD;SAN ANTONIO DE LA FLORIDA;GLORIETA;V;5;;;;;MADRID;MADRID;28008;CASA DE CAMPO;MONCLOA-ARAVACA;438548;4475419;40.425256682855846;-3.725725718176111;"915 420 722 / 917 011 863                                                                                        
";917 011 686;sanantonio@madrid.es;/contenido/entidadesYorganismos/MonumentosEdificiosArtisticos
58353;Espacio Fundaci�n Telef�nica;; De martes a domingo, de 10 a 20 horas.  Cerrado al p�blico todos los lunes y los festivos 25 de diciembre y d�as 1 y 6 de enero. ;  Accesos y espacios habilitados para personas con movilidad reducida, aseos adaptados y con cambiador de pa�ales, ascensor, zonas de descanso y silla de ruedas para uso en las salas.  Tabletas con gu�a multimedia de las exposiciones, disponibles en el mostrador de informaci�n.  Conexi�n WIFI.  ; Metro: Gran V�a (l�neas 1 y 5)  Bus: 1, 2, 46, 74, 146, 202 ;  Tel�fonos:    Visitas guiadas y talleres educativos: 915 225 645  Reserva de salas y eventos: 915 840 440 / 915 840 646    Correo electr�nico:     Informaci�n general .   Visitas guiadas y talleres educativos .   Reserva de salas y eventos .   Tienda abierta de martes a domingo, de 10 a 20 horas. ;1;http://www.madrid.es/vgn-ext-templating/v/index.jsp?vgnextchannel=9e4c43db40317010VgnVCM100000dc0ca8c0RCRD&vgnextoid=87748ed67151c010VgnVCM2000000c205a0aRCRD;FUENCARRAL;CALLE;V;3;;;;;MADRID;MADRID;28004;UNIVERSIDAD;CENTRO;440590;4474865;40.42041458612889;-3.7016034186955076;915 808 700 (informaci�n general);;;/contenido/entidadesYorganismos/Museos
6017808;Fundaci�n AMYC (Arte Moderno y Contempor�neo). Casa - Museo Fuente del Rey;; De lunes a viernes de 10 a 19 horas. S�bados y domingos cerrado.   Visitas  guiadas y concertadas con cita previa. ; Siguiendo la iniciativa del mecenazgo de Francisco Daurella, en 2009 decide crear la Fundaci�n  AMYC , para la que recupera, rehabilita y acondicona una casa de uso privado para transformala en Casa - Museo. En sus instalaciones acoger� diferentes salas expositivas y una sala polivalente para actos culturales. El eje principal de la colecci�n de m�s de 250 obras, es dar una visi�n muy din�mica de lo sucedido entre fianles del siglo  XIX  y mediados del siglo  XX . ;Bus: 161, I;;0;http://www.madrid.es/vgn-ext-templating/v/index.jsp?vgnextchannel=9e4c43db40317010VgnVCM100000dc0ca8c0RCRD&vgnextoid=5c1260101310f210VgnVCM1000000b205a0aRCRD;FUENTE DEL REY;CALLE;V;11;;;;;MADRID;MADRID;28023;ARAVACA;MONCLOA-ARAVACA;434772;4478804;40.45546180290319;-3.7705836264842576;913 579 116;913 575 989;info@fundacionamyc.org;/contenido/entidadesYorganismos/FundacionesCulturales
3348;Monasterio de las Descalzas Reales; Convento fundado por la Princesa Juana de Austria, transformando un antiguo palacio de su madre Isabel de Portugal. ;" S�lo con visita guiada.    De martes a s�bado de 10 a 14 horas y de 16 a 18:30 horas  Domingos y festivos, de 10 a 15 horas y tardes cerrado  Cierre de taquillas una hora antes  Cerrado: d�as 1, 6 de enero; Semana Santa (del 16 al 19 de abril, inclusive); 1 de mayo; 10 de noviembre; 24, 25 y 31 de diciembre de 2014  Abierto: 15 de mayo y 8 de diciembre de 2014  Abierto horario domingo: 2 de mayo; 19 de junio; 15 de agosto; 1 de noviembre y 6 de diciembre de 2014    Atenci�n telef�nica:    De lunes a s�bados de 9:30 a 17 horas  Domingos y festivos de 9 a 14 horas  ";; Metro: Callao (l�neas 3, 5) , Santo Domingo (l�nea 2) , Sol (l�neas 1, 2, 3) Gran V�a (l�neas 1, 5)  Bus: 1, 2, 3, 5, 15, 20, 25, 39, 40, 44, 46, 50, 51, 52, 53, 74, 75, 133, 146, 147, 148, 149, 150, 202 ;;0;http://www.madrid.es/vgn-ext-templating/v/index.jsp?vgnextchannel=9e4c43db40317010VgnVCM100000dc0ca8c0RCRD&vgnextoid=12e113db5b71c010VgnVCM1000000b205a0aRCRD;DESCALZAS;PLAZA;V;3;;;;;MADRID;MADRID;28013;SOL;CENTRO;440197;4474626;40.418233359889484;-3.706213134639163;"914 548 800 (Informaci�n, en Palacio Real)                                       
";915 212 779;;/contenido/entidadesYorganismos/MonumentosEdificiosArtisticos
5873478;Museo ABC;Centro de arte, dibujo e ilustraci�n. ;  De martes a s�bado de 11 a 20 horas  Domingos de 10 a 14 horas  Festivos de 11 a 20 horas  Lunes cerrado   Visitas guiadas:  de martes a viernes (consultar horario en el tel�fono del museo).  ;; Metro: San Bernardo (l�neas 2 y 4), Noviciado (l�nea 2), Ventura Rodr�guez (l�nea 3), Plaza de Espa�a (l�neas 3 y 10)  Bus: M2, 3, 147 ;;0;http://www.madrid.es/vgn-ext-templating/v/index.jsp?vgnextchannel=9e4c43db40317010VgnVCM100000dc0ca8c0RCRD&vgnextoid=f0103fee6537c210VgnVCM1000000b205a0aRCRD;AMANIEL;CALLE;V;29;;;;;MADRID;MADRID;28015;UNIVERSIDAD;CENTRO;439922;4475646;40.42740213531285;-3.70955095379701;917 588 379;;;/contenido/entidadesYorganismos/Museos
2067;Museo Africano Mundo Negro;Situado en los locales de los Misioneros de Madrid y abierto al p�blico en 1985, se propone divulgar la cultura africana, promoviendo el conocimiento de la vida, de la historia y de las diversas culturas africanas. ;   Grupos con cita previa : de lunes a s�bado   Particulares  (visitas guiadas): domingos a las 11,30 horas   Cerrado : julio, agosto y septiembre  ;;Bus: 11, 70, 114, 122 ;;0;http://www.madrid.es/vgn-ext-templating/v/index.jsp?vgnextchannel=9e4c43db40317010VgnVCM100000dc0ca8c0RCRD&vgnextoid=6ab8ef4d7f71c010VgnVCM1000000b205a0aRCRD;ARTURO SORIA;CALLE;V;101;;;;;MADRID;MADRID;28043;SAN JUAN BAUTISTA;CIUDAD LINEAL;444864;4478056;40.449455579055886;-3.651503432956766;914 152 412;915 192 550;;/contenido/entidadesYorganismos/Museos
2050;Museo Arqueol�gico Nacional; Constru�do en 1866 seg�n proyectos de Jare�o y Alarc�n y terminado por Ruiz de Salces. Ocupa el mismo edificio que la Biblioteca Nacional. De estilo neocl�sico. ; De martes a s�bado de 9:30 a 20 horas. Domingo y festivos de 9:30 a 15 horas.  Cerrado todos los lunes, 1 y 6 de enero, 1 de mayo y 24, 25 y 31 de diciembre y un festivo local (15 de mayo en 2014) ;  Sistema de bucle inductivo de audio para personas con problemas de audici�n en la proyecci�n audiovisual  y �reas de atenci�n a p�blico  Acceso para personas con movilidad reducida   Actividades culturales y did�cticas   Visitas para grupos previa concertaci�n de cita   Publicaciones   Servicio fotogr�fico  ; Metro: Serrano (l�nea 4), Col�n (l�nea 4), Velazquez (l�nea 4)  Bus: 1, 2, 5, 9, 14, 15, 19, 20, 21, 27, 28, 45, 51, 52, 53, 74, 146, 150  Renfe: Recoletos ;" Los grupos de cinco o m�s personas tendr�n una reducci�n del 50% en el precio de la entrada, previa reserva.   Grupos escolares:  La visita de los grupos escolares es gratuita. El grupo debe contar con un profesor o persona responsable por cada 20 alumnos.  La guia multimedia es un dispositivo que mejora las prestaciones de las tradiciones audioguias, trasmitiendo la informacion sobre la exposici�n en diversos formatos: texto, imagen, v�deo y audio.  Ofrece un recorrido general con informac&iexcl;�n en espa�ol, ingl�s y lengua de signos, as� como un recorrido espec�fcio para personas con discapacidad visual ";1;http://www.madrid.es/vgn-ext-templating/v/index.jsp?vgnextchannel=9e4c43db40317010VgnVCM100000dc0ca8c0RCRD&vgnextoid=8fd8ef4d7f71c010VgnVCM1000000b205a0aRCRD;SERRANO;CALLE;V;13;;;;;MADRID;MADRID;28001;RECOLETOS;SALAMANCA;441708;4475173;40.42326842040792;-3.6884539762461968;"915 777 912                              
                                              
";;sugerencias@man.es;/contenido/entidadesYorganismos/Museos
2072;Museo Casa de la Moneda; El Museo de la F�brica Nacional de la Moneda y Timbre, contiene importantes colecciones numism�ticas, grabados, dibujos, moldes y troqueles de los siglos  XVI ,  XVII  y  XVIII , cubriendo la historia de la moneda desde el siglo  VII a.C.  hasta nuestros dias. ;" De martes a viernes ininterrumpidamente de 10 a 17:30 horas. S�bados, domingos y festivos de 10 a 14 horas.  Cerrado los lunes, y los d�as 1, 4 y 5 de enero; 17, 18, 19 y 20 de abril; 1 y 2 de mayo; 19 de junio; 23, 24, 25 y 31 de diciembre. ";El p�blico puede acu�ar una moneda durante su visita. Accesible a personas con minusval�a (f�sica y sensorial). Visitas guiadas e introduce la lengua de signos para personas sordas ;" Metro: O&acute;Donnell (l�nea 6)  Bus: 2, 28, 30, 56, 71, 143, C, N6 ";;1;http://www.madrid.es/vgn-ext-templating/v/index.jsp?vgnextchannel=9e4c43db40317010VgnVCM100000dc0ca8c0RCRD&vgnextoid=12f8ef4d7f71c010VgnVCM1000000b205a0aRCRD;DOCTOR ESQUERDO;CALLE;V;36;;;;;MADRID;MADRID;28028;GOYA;SALAMANCA;443345;4475085;40.42258896520152;-3.6691501169061067;"915 666 544                 
";915 666 809;museo@fnmt.es;/contenido/entidadesYorganismos/Museos
4112;Museo Cerralbo; Este Palacio, construido entre 1883 y 1893, fue concebido como vivienda y como museo para sede de las obras de arte reunidas por los Marqueses de Cerralbo y sus hijos, los Marqueses de Villa Huerta, durante los numerosos viajes que realizaron por Espa�a y Europa.   Objetivos y Fines de la Fundaci�n Cerralbo (en la misma sede)    Velar porque las colecciones no se disgreguen ni enajenen y permanezcan reunidas en su sede de Ventura Rodr�guez.   Conceder premios y becas para artistas e investigadores y celebrar actos culturales.   Colaborar en la custodia, exhibici�n y mejora del patrimonio que el Estado hered� del Marqu�s, perpetuando as� su memoria.   ;  De martes a s�bado de 9:30 a 15 horas  Jueves de 17 a 20 horas (apertura gratuita, excepto festivos)  Domingos y festivos de 10 a 15 horas  Lunes, cerrado  Jueves y Viernes Santo tienen el horario de los d�as festivos  Visitas guiadas, previa reserva, los martes y mi�rcoles y, sin reserva, los jueves , viernes y s�bados, a cargo de los voluntarios culturales de la Confederaci�n de Aulas de la Tercera Edad  ;  Biblioteca  Sala de Exposiciones  Sala de Conferencias  Gabinete diet�tico  Gabinete de dibujo y laboratorio de restauraci�n  ; Metro: Ventura Rodr�guez (l�nea 3), Plaza de Espa�a (l�neas 3 y 10)  Bus: 1, 2, 3, 25, 39, 44, 46, 74, 75, 133, 138, 148, 202, 749, C1, C2 ;  Visitas guiadas gratuitas  con reserva previa los martes y mi�rcoles (a partir de septiembre se podr� reservar para el �ltilmo trimestre del a�o), y sin reserva los jueves, viernes y s�bados, a cargo de los voluntarios culturales de la Confederaci�n de Aulas de la Tercera Edad. Esta actividad seguir� en curso hasta finales de junio. ;1;http://www.madrid.es/vgn-ext-templating/v/index.jsp?vgnextchannel=9e4c43db40317010VgnVCM100000dc0ca8c0RCRD&vgnextoid=a4efb0c40971c010VgnVCM1000000b205a0aRCRD;VENTURA RODRIGUEZ;CALLE;V;17;;;;;MADRID;MADRID;28008;ARGUELLES;MONCLOA-ARAVACA;439489;4475246;40.42376732078657;-3.7146170388153497;915 473 646 / 47;915 591 171;museo.cerralbo@mecd.es;/contenido/entidadesYorganismos/Museos
18176;Museo Colecciones del Instituto de Cr�dito Oficial (ICO); El Museo Colecciones  ICO  abri� sus puertas al p�blico en marzo de 1996. Su objetivo era difundir la colecci�n de arte del Instituto de Cr�dito Oficial, una de las m�s importantes de arte espa�ol contempor�neo.  ;  De martes a s�bado: de 11 a 20 horas  Domingo y festivos: de 10 a 14 horas  Cerrado: todos los lunes del a�o (incluidos festivos) y los d�as 1 de enero, 1 de mayo y 25 de diciembre   Los d�as 24 y 31 de diciembre el Museo ICO permanecer� abierto de 10 a 14 horas.   ;  Colecciones:  Suite Vollard, de Pablo Picasso - Pintura Espa�ola Contempor�nea - Escultura Moderna Espa�ola con Dibujo.   Servicios:  adem�s de exponer y difundir sus propios fondos, trabaja en la realizaci�n de exposiciones temporales que parten, principalmente, de tres l�neas. La primera est� dedicada a la realizaci�n de exposiciones de  arquitectura y dise�o , tanto de arquitectos nacionales como de �mbito internacional. La segunda l�nea se dedica a la colaboraci�n anual que el museo mantiene con el festival de fotograf�a  PHotoEspa�a  y que ha permitido la exposici�n de reputados artistas como Man Ray o Dorothea Lange. Por �ltimo, la tercera de estas l�neas est� dedicada a la difusi�n de la  obra poco conocida de artistas presentes en las colecciones  ICO .  Esta pol�tica expositiva ha permitido conocer nuevas facetas de artistas como Susana Solano, Guillermo P�rez Villalta o Dar�o Urzay.  ; Metro: Banco de Espa�a (l�nea 2) , Sevilla (l�nea 2)  Bus: 5, 9, 15, 10, 14, 27, 34, 37, 45, 51, 150 ;;1;http://www.madrid.es/vgn-ext-templating/v/index.jsp?vgnextchannel=9e4c43db40317010VgnVCM100000dc0ca8c0RCRD&vgnextoid=2886444a2951c010VgnVCM2000000c205a0aRCRD;ZORRILLA;CALLE;V;3;;;;;MADRID;MADRID;28014;CORTES;CENTRO;440915;4474456;40.41675330128869;-3.6977346235068373;914 201 242;;museoico@ico.es;/contenido/entidadesYorganismos/Museos
2068;Museo de Aeron�utica y Astron�utica; Emplazado en Cuatro Vientos desde 1966, tiene como objetivo narrar la historia y el desarrollo cient�fico-t�cnico de la Aeron�utica y Astrona�tica espa�olas con 150 aeronaves, uniformes, condecoraciones, maquetas, armamento y una destacada colecci�n de motores en 70.000  m2  , distribuidos en siete hangares y siete plataformas al aire libre.  ; De martes a domingo de 10 a 14 horas, a partir de las 13:30 no se permite la entrada de p�blico.  Cerrado: los lunes, d�as 1 y 6 de enero, Jueves y Viernes Santo, 12 de octubre,  d�as 10, 24, 25 y 31 de diciembre y el mes de agosto ;Aparcamiento gratuito, cafeter�a, tienda - librer�a, sal�n de actos. ; Bus: 518 , 521 , 522 , 523 (salida: Pr�ncipe P�o).   Metro: Cuatro Vientos   Veh�culo particular: Entrada por la A-V, en sentido Madrid, Km. 10.500 (carretera de Extremadura). Ver plano entrada al Museo en documentaci�n asociada.  ;  Visitas de grupo:  previa petici�n de cita  ;1;http://www.madrid.es/vgn-ext-templating/v/index.jsp?vgnextchannel=9e4c43db40317010VgnVCM100000dc0ca8c0RCRD&vgnextoid=90aaef4d7f71c010VgnVCM1000000b205a0aRCRD;A-5;AUTOVIA;T;10500;;;;Km. 10,5;MADRID;MADRID;28024;CUATRO VIENTOS;LATINA;432348;4469705;40.3733013700739;-3.798200034372686;915 091 690 (centralita) / 915 095 644 (reserva de actividades);917 106 847;;/contenido/entidadesYorganismos/Museos
2091;Museo de Am�rica;Colecciones arqueol�gicas, etnogr�ficas y de arte colonial tra�das a Espa�a entre los siglos XVI y XX, cuya tem�tica abarca desde la Prehistoria americana hasta la actualidad. Destacan el Tesoro de los Quimbayas, los Enonchados de la Conquista de M�xico y las colecciones europeas m�s antiguas sobre los indios de las praderas.;  Horario:    De martes a s�bado, de 9:30 a 15 horas  Jueves, apertura continuada de 9:30 a 19 horas  Domingos y festivos de 10 a 15 horas     Cerrado:  todos los lunes del a�o, d�a 1 y 6 de enero, d�a 1 de mayo, d�as 24, 25 y 31 de diciembre y un festivo local. ; Biblioteca - Tienda - Cafeter�a - Accesible a personas con minusval�a (f�sica) - Visita guiada para grupos - Visitas guiadas a las piezas m�s representativas de las colecciones del museo (s�bados a las 11 horas) - Club de Lectura   ; Bus: 1, 12, 44, 82, 132  Metro: Moncloa (L�neas 3, 6) ; Inscripci�n en el tel�fono 915 439 437  Sitio web:  Migrar es cultura , para mostrar diversidad, intercambio y pluralismo cultural derivados de las migraciones, a base de diferentes canales tem�ticos y compuesta por textos, fotograf�as y sobre todo videos cortos, elaborados por los propios internautas   ;1;http://www.madrid.es/vgn-ext-templating/v/index.jsp?vgnextchannel=9e4c43db40317010VgnVCM100000dc0ca8c0RCRD&vgnextoid=c929ef4d7f71c010VgnVCM1000000b205a0aRCRD;REYES CATOLICOS;AVENIDA;V;6;;;;;MADRID;MADRID;28040;CIUDAD UNIVERSITARIA;MONCLOA-ARAVACA;438889;4476828;40.43797469898852;-3.721841843311362;915 439 437 / 915 492 641;915 446 742;;/contenido/entidadesYorganismos/Museos
83922;Museo de Arte Contempor�neo de Madrid (cerrado); Se ubica en el hist�rico Caurtel del Conde Duque, obra de principios del siglo XVIII del arquitecto Pedro de Ribera. Al igual que otros museos de arte contempor�neo,nacionales o extranjeros, se ha utilizado un edificio hist�rico para albergar las colecciones de ate contempor�neo del Ayuntamiento de Madrid con arreglo a un programa de rehabilitaci�n integral del edificio para usos y servicios culturales, de acuerdo a la legislaci�n sore accesibilidad vigente en nuestra Comunidad /Ley 8 /1993 de 22 de junio de Promoci�n de la Accesibilida y Supresi�n de Barreras Arquitect�nicas) ;  De martes a viernes de 10 a 14 y de 17:30 a 21 horas  S�gados, domingos y festivos de 10:30 a 14:30 horas.  Cerrado los lunes (incluso festivos) y d�as 1 y 6 de enero, 1 de mayo y 25 de diciembre   El horario de taquilla finaliza 20 minutos antes de la hroa de cierre del museo.   Las salas se desalojan 15 minutos antes del cierre. ;  Personal de informaci�n en el mostrador ubicado en el acceso central del museo y a lo largo de todo el recorrido, distribuidos por todo el museo  Cafer�a  Tienda  Guardarropa y servicio de consignas  Zonas adaptadas para beb�s, con cambiadores y servicios de familia  Zona wifi en cafeter�a y biblioteca  Servicio m�dico  Aparcamiento para bicicletas, frente a la entrda principal del edificio de Conde Duque    Accesibilidad:  cuenta en la actualidad con accesos y servicios adaptados a minusv�lidos a lo largo de todo su recorrido.   ; Metro: Ventura Rodr�guez (l�nea 3), Plaza de Espa�a l�neas 3, 10), San Bernardo (l�neas 2, 4), Noviciado (l�nea7, 10)  Bus: 1, 2, 21, 44, 74, 133, C, M2  Renfe: Pr�ncipe P�o  Aparcamiento p�blico: plaza de Espa�a (accesible) ;;1;http://www.madrid.es/vgn-ext-templating/v/index.jsp?vgnextchannel=9e4c43db40317010VgnVCM100000dc0ca8c0RCRD&vgnextoid=84a55c2cdc41c010VgnVCM2000000c205a0aRCRD;CONDE DUQUE;CALLE;V;9;;;;;MADRID;MADRID;28015;UNIVERSIDAD;CENTRO;439832;4475644;40.42737760210632;-3.7106116887809817;915 885 928  /  915 885 861;;mmacmdifusion@madrid.es;/contenido/entidadesYorganismos/Museos
2069;Museo de Artes y Tradiciones Populares. Centro Cultural La Corrala; El Museo se forma tras la donaci�n de la colecci�n de Guadalupe Gonz�lez Hontoria a la Universidad Aut�noma de Madrid. Las piezas comprenden:   El ciclo vital humano y religiosidad popular  El ciclo festivo anual, instrumentos musicales, bailes y juegos de adultos  Tareas dom�sticas  Agricultura, ganader�a, caza y pesca  Los oficios artesanales y transporte rural.  ;Permanece abierto al p�blico de lunes a viernes con horario de 10 a 14 horas y de 17 a 21 horas. S�bados de 10 a 14 horas; Visitas guiadas previa cita en el tel�fono del Museo o en  visitas.atp@mam.es  ; Metro: La Latina (l�nea 5)  Bus: 41, 60, 148 y Circular  Renfe: Embajadores /Atocha ;;0;http://www.madrid.es/vgn-ext-templating/v/index.jsp?vgnextchannel=9e4c43db40317010VgnVCM100000dc0ca8c0RCRD&vgnextoid=5c39ef4d7f71c010VgnVCM1000000b205a0aRCRD;CARLOS ARNICHES;CALLE;V;3-5;;;;;MADRID;MADRID;28005;EMBAJADORES;CENTRO;440008;4473583;40.408814891299514;-3.7083421466389113;914 976 500;914 976 510;museoatp@uam.es;/contenido/entidadesYorganismos/Museos
2092;Museo de Astronom�a y Geodesia; La colecci�n se compone de objetos relacionados con el mundo de la Astronom�a, como teodolitos, cron�metros, br�julas topogr�ficas, sextantes girosc�picos, astrolabios de prisma, c�maras fotogr�ficas para eclipse,  etc   ;Visita con cita previa;;Bus: 82 , F , 132 , I , G ;;0;http://www.madrid.es/vgn-ext-templating/v/index.jsp?vgnextchannel=9e4c43db40317010VgnVCM100000dc0ca8c0RCRD&vgnextoid=ee49ef4d7f71c010VgnVCM1000000b205a0aRCRD;CIENCIAS;PLAZA;V;3;;;;;MADRID;MADRID;28040;CIUDAD UNIVERSITARIA;MONCLOA-ARAVACA;438528;4478102;40.44942472705852;-3.7262214898219117;913 944 615;913 944 615;;/contenido/entidadesYorganismos/Museos
5727435;Museo de Bomberos;; Abierto todos los d�as de  09:30  a  14:00  horas, excepto 25 de diciembre, 1 enero,  6 de enero y 1 de mayo.    Nota:  El museo permanecera cerrado hasta octubre de 2015 por obras de acondicionamiento.     Visitas Guiadas  Se pueden concertar en el tel�fono: 91 478 65 72 ( Museo )  M�s informaci�n: 91 588 99 07 - 91 588 82 40  ;   Exposici�n fotogr�fica  Un recorrido por toda su historia: grandes incendios, construcci�n de los primeros parques, bomberos fallecidos en acto de servicio...   Veh�culos  Una amplia gama de los veh�culos utilizados en los �ltimos 400 a�os: Las primeras bombas brazales, cl�sicos de los a�os veinte y veh�culos adaptados de la II Guerra Mundial.   Herramientas y equipos  Diferentes escalas de gancho, extintores primitivos o las primeras lonas de salvamento nos dan una idea de c�mo han trabajado los bomberos en los �ltimos siglos as� como herramientas de distintas �pocas que nos muestran el avance tecnol�gico en la lucha contra el fuego y salvamento.   Cascos  Amplia exposici�n en la que se muestra la evoluci�n de los cascos en Madrid. Adem�s se expone una colecci�n internacional en la que se aprecia, en su dise�o, la mezcla de protecci�n, materiales y comodidad en los diferentes pa�ses del mundo.   Uniformes  De �poca, trajes de gala, as� como varios modelos que fueron utilizados en sucesos destacados de la historia de Madrid. Completan esta colecci�n varios trajes de aproximaci�n al fuego y protecci�n qu�mica especial entre otros.   Comunicaciones  Antiguamente los bomberos se comunicaban mediante toques de corneta. Esta exposici�n muestra las partituras con sus particulares comandas. Adem�s, la exposici�n incluye la evoluci�n de los equipos de comunicaciones.   Sanitario  Una c�mara de recuperaci�n respiratoria para los bomberos intoxicados por el humo en los fuegos es uno de los mayores atractivos de este �rea.  ;  Metro : L1- Buenos Aires  Bus : 141 y 143 ;  Abierto al p�blico en 1982, re�ne todos los instrumentos usados por los bomberos durante m�s de cuatro siglos.      Acceso para minusv�lidos        Entrada gratuita      Apropiado para ni�os                Visita para grupos con cita previa  ;0;http://www.madrid.es/vgn-ext-templating/v/index.jsp?vgnextchannel=9e4c43db40317010VgnVCM100000dc0ca8c0RCRD&vgnextoid=9f0966a8bba49210VgnVCM2000000c205a0aRCRD;BOADA;CALLE;V;4;;;;;MADRID;MADRID;28038;NUMANCIA;PUENTE DE VALLECAS;444613;4471961;40.39453171263195;-3.6539313207612207;"91 478 65 72 (Museo),                                                                                                                  
                                                                                                                      
";;sgbomberos@madrid.es;/contenido/entidadesYorganismos/Museos
2090;Museo de Calcograf�a Nacional; Expone colecciones de planchas y grabados.  ;  De octubre a junio de lunes a viernes de 9 a 17 horas.  Verano: de julio a septiembre de 9 a 15 horas.   Agosto cerrado   En el caso de que se celebren exposiciones, consultar horario, ya que puede variar.  ;Sala de exposiciones - Biblioteca; Metro: Sol (L�neas 1, 2, 3), Sevilla (L�nea 2)  Bus: 5, 15, 20, 51, 52, 53, 150 ;;0;http://www.madrid.es/vgn-ext-templating/v/index.jsp?vgnextchannel=9e4c43db40317010VgnVCM100000dc0ca8c0RCRD&vgnextoid=7169ef4d7f71c010VgnVCM1000000b205a0aRCRD;ALCALA;CALLE;V;13;;;;;MADRID;MADRID;28014;SOL;CENTRO;440667;4474557;40.41764548040709;-3.700667044636178;915 240 864;915 240 977;calcografianacional.delegado@rabasf.org;/contenido/entidadesYorganismos/Museos
2084;Museo de Cera;; De lunes a viernes de 10 a 14,30 y de 16,30 a 20,30 horas.  S�bados, domingos y festivos de 10 a 20,30 horas.  Los d�as 25 de diciembre y 1 de enero, el museo abre de 10 a 14:30 horas y de 16:30 a 20:30 horas.  Las taquillas cierran media hora antes. ;Apropiado para ni�os; Metro: Col�n  Bus: 5 , 14 , 21 , 27 , 45 , 53 , 15  Renfe: Recoletos ;;1;http://www.madrid.es/vgn-ext-templating/v/index.jsp?vgnextchannel=9e4c43db40317010VgnVCM100000dc0ca8c0RCRD&vgnextoid=9689ef4d7f71c010VgnVCM1000000b205a0aRCRD;RECOLETOS;PASEO;V;41;;;;;MADRID;MADRID;28004;JUSTICIA;CENTRO;441456;4475301;40.424403779665376;-3.6914362030084815;913 194 681;913 080 825;info@museoceramadrid.com;/contenido/entidadesYorganismos/Museos
2108;Museo de Farmacia Militar;Superficie de 600  m/2  donde se exponen fondos de car�cter hist�rico y cient�fico. Las colecciones abarcan desde los or�genes de la ciencia farmac�utica, recreado en el laboratorio yatroqu�mico del siglo XVII, hasta los actuales procesos para la elaboraci�n de preparados.; De lunes a viernes de 10 a 13 horas, s�lo visitas concertadas ;; Metro: Embajadores (l�nea 3)  Bus: 27 , 34 , 36 , 41 , 60 , 78 , 116 , 119 , 148 , C  Renfe :  Embajadores ;;0;http://www.madrid.es/vgn-ext-templating/v/index.jsp?vgnextchannel=9e4c43db40317010VgnVCM100000dc0ca8c0RCRD&vgnextoid=ea0aef4d7f71c010VgnVCM1000000b205a0aRCRD;EMBAJADORES;CALLE;V;75;;;;;MADRID;MADRID;28012;PALOS DE MOGUER;ARGANZUELA;440636;4472954;40.403202661477145;-3.7008825895813167;"915 399 503            
";915 302 707;smunort@oc.mde.es;/contenido/entidadesYorganismos/Museos
4545827;Museo de Historia de la Comunidad Jud�a de Madrid;;  Visitas guiadas     Individual : �ltimo jueves de cada mes a las 19 horas, salvo festividades (confirmar previamente).   Grupos  (m�nimo 10 personas): consultar tel�fono: 915 913 131 (Ext. 4 o correo electr�nico:  visita@cjmadrid.org   ;; Metro: Iglesia (l�nea 1)  Bus: 5, 12, 16, 37, 61, 149  ;;0;http://www.madrid.es/vgn-ext-templating/v/index.jsp?vgnextchannel=9e4c43db40317010VgnVCM100000dc0ca8c0RCRD&vgnextoid=8f2a4a659ee71110VgnVCM1000000b205a0aRCRD;BALMES;CALLE;V;3;;;;;MADRID;MADRID;28010;TRAFALGAR;CHAMBERI;440738;4476521;40.43534317115623;-3.700013620203689;915 913 131 ;;secretaria@cjmadrid.org;/contenido/entidadesYorganismos/Museos
2054;Museo de Historia de Madrid; Antiguo Museo Municipal de Madrid. ;  Cerrado temporalmente desde el d�a 3 de noviembre de 2014     Museo     De martes a viernes de 9:30 a 14:30 horas.   s�bados, domingos y festivos de 9:30 a 20 horas   Cerrado los lunes y los d�as 1 de enero, 1 de mayo y 25 de diciembre    Biblioteca:  de lunes a viernes de 8:30 a 14: 30 horas   Servicio de documentaci�n:  de lunes a viernes de 8:30 a 14:30 horas ;  Biblioteca de investigaci�n  Servicio de documentaci�n  Guardarropa  ; Metro: Tribunal , Bilbao  Bus: 3, 21, 40, 147, 149  Aparcamiento p�blico: Barcel� ;  Accesibilidad f�sica:    Rampa de acceso a la entrada.  Ascensores.  Aseos adaptados.  Silla de ruedas.  ;1;http://www.madrid.es/vgn-ext-templating/v/index.jsp?vgnextchannel=9e4c43db40317010VgnVCM100000dc0ca8c0RCRD&vgnextoid=8f3079262ef5d010VgnVCM1000000b205a0aRCRD;FUENCARRAL;CALLE;V;78;;;;;MADRID;MADRID;28004;JUSTICIA;CENTRO;440659;4475459;40.42577054821346;-3.700845660719608;917 011 863;917 011 686;smuseosm@madrid.es;/contenido/entidadesYorganismos/MonumentosEdificiosArtisticos
4591873;Museo de la Biblioteca Nacional; El Museo cuenta con unos 1.400 m2 y se distribuye en ocho salas.  ; De martes a s�bados de 10 a 20 y domingos de 10 a 14 horas. Lunes cerrado. �ltimo pase treinta minutos antes del cierre. Entrada gratuita.   D�as de cierre   Para 2014: 1 y 6 de enero, 1 de mayo, 10 de noviembre y 8, 24, 25 y 31 de diciembre ; Talleres escolares y para p�blico en general, visitas guiadas, piezas del mes, etc.  ; Metro: Col�n y Serrano (l�nea 4)  Bus: 1, 5, 9, 14, 19, 21, 27, 37, 45, 51, 53, 74, 150  Cercan�as: Recoletos ;;0;http://www.madrid.es/vgn-ext-templating/v/index.jsp?vgnextchannel=9e4c43db40317010VgnVCM100000dc0ca8c0RCRD&vgnextoid=05920d3b4c503110VgnVCM2000000c205a0aRCRD;RECOLETOS;PASEO;V;20;;;;;MADRID;MADRID;28001;RECOLETOS;SALAMANCA;441503;4475142;40.42297474261295;-3.6908675320710223;915 807 759 ;915 168 928;museo@bne.es;/contenido/entidadesYorganismos/Museos
4566286;Museo de la Catedral de la Almudena;;De lunes a s�bado de 10 a 14:30 horas. Cerrado los domingos, fiestas de precepto y d�as de actos de culto especiales;;Bus: 3, 148, L3;;0;http://www.madrid.es/vgn-ext-templating/v/index.jsp?vgnextchannel=9e4c43db40317010VgnVCM100000dc0ca8c0RCRD&vgnextoid=82cb8d0e78d22110VgnVCM1000000b205a0aRCRD;ALMUDENA;PLAZA;V;S/N;;;;ENTRADA AL MUSEO POR UN COSTADO DE LA ENTRADA PRINCIPAL;MADRID;MADRID;28013;PALACIO;CENTRO;439559;4474255;40.41484504627648;-3.7136975721439347;915 592 874;;museoalmudena@planalfa.es;/contenido/entidadesYorganismos/Museos
2073;Museo de la Farmacia Hispana; Entre sus fondos destacan las colecciones de botes cer�micos, morteros y cajas de madera policromadas, relaciondos con la pr�ctica docente, cuatro boticas hist�ricas y tres instalaciones que recrean un laboratorio alquimista, una botica �rabe y la botica del Hospital de San Juan de las Afueras (Toledo). ; De lunes a viernes de 9 a 14 horas (periodo lectivo).  ;; Metro: Ciudad Universitaria  Bus: 82 , 132 , G ;;0;http://www.madrid.es/vgn-ext-templating/v/index.jsp?vgnextchannel=9e4c43db40317010VgnVCM100000dc0ca8c0RCRD&vgnextoid=58f9ef4d7f71c010VgnVCM1000000b205a0aRCRD;RAMON Y CAJAL;PLAZA;V;0;;;;;MADRID;MADRID;28040;CIUDAD UNIVERSITARIA;MONCLOA-ARAVACA;438524;4477559;40.4445328804645;-3.7262160043788155;913 941 797;913 941 797;museofar@farm.ucm.es;/contenido/entidadesYorganismos/Museos
2107;Museo de la Guardia Civil;" El Museo se crea por Orden General del Cuerpo de 23 de junio de 1982 y se inaugura el d�a 12 de octubre de 1982.  Los fondos que forman el Museo han sido aportados o depositados bien por entidades p�blicas o privadas, bien por las distintas Unidades del Cuerpo, todos los cuales est�n vinculados de alguna manera a las vicisitudes e historia de la Guardia Civil desde su creaci�n hasta nuestros d�as. Existen cuatro salas denominadas: banderas (rellano de la 2&ordf; Planta), sala de arma, sala de uniformes y maniquies, sala de objetos varios y dioramas. "; De lunes a viernes de 9 a 14 horas. S�bados, domingos y festivos cerrado ;; Metro: Guzm�n el Bueno (l�nea 6, 7)  Bus: 2,  44, 45, Circular ;  Visita:  previa identificaci�n personal   Visita de grupos:  debe concertarse cita previa por escrito ;0;http://www.madrid.es/vgn-ext-templating/v/index.jsp?vgnextchannel=9e4c43db40317010VgnVCM100000dc0ca8c0RCRD&vgnextoid=003aef4d7f71c010VgnVCM1000000b205a0aRCRD;GUZMAN EL BUENO;CALLE;V;110;;;;;MADRID;MADRID;28003;VALLEHERMOSO;CHAMBERI;439705;4477551;40.44454745648486;-3.7122900396933813;915 146 000 ( Ext. 8477 / 8495 /48477);;dg-estuhistoricos-registro@guardiacivil.org;/contenido/entidadesYorganismos/Museos
2114;Museo de la Real Academia de Bellas Artes de San Fernando;Construido inicialmente para palacio de D. Juan de Goyeneche, el edificio fue adquirido por la Academia de Bellas Artes en 1773 y reformado bajo la direcci�n de Fernando Chueca Goitia en 1973 y la fachada por Diego de Villanueva en 1774.;"  Colecci�n permanente:  de martes a domingos de 10 a 15 horas., incluyendo festivos. Lunes cerrado.      Exposiciones temporales:  consultar telef�nicamente  Cerrado d�as 1 y 6 de enero, 1 y 30 de mayo, 9 de noviembre; 24, 25 y 31 de diciembre.  ";Sala de exposiciones - Accesible a personas con minusval�a (f�sica).; Metro: Sol, Sevilla  Bus: 3 , 5 , 15 , 20 , 50 , 51 , 55 , 53 , 150 ;  Visitas guiadas (no grupos):  martes, jueves y viernes a las 11 horas, excepto Navidad, Semana Santa y agosto.   Visitas para grupos y privadas : gratuitas y guiadas a cargo de voluntarios culturales del Museo previa solicitud. Visitas de grupo:  museo.visitas@rabasf.org  - Visitas privadas a museo cerrado:  actos.culturales@rabasf.org   ;1;http://www.madrid.es/vgn-ext-templating/v/index.jsp?vgnextchannel=9e4c43db40317010VgnVCM100000dc0ca8c0RCRD&vgnextoid=924aef4d7f71c010VgnVCM1000000b205a0aRCRD;ALCALA;CALLE;V;13;;;;;MADRID;MADRID;28014;SOL;CENTRO;440667;4474557;40.41764548040709;-3.700667044636178;"915 240 864 (Centralita)                            
";915 241 034;;/contenido/entidadesYorganismos/MonumentosEdificiosArtisticos
2095;Museo de Mineralog�a;;Lunes, martes, mi�rcoles y jueves de 12:30 a 14:30 horas (conviene concertar previamente la visita) ;Colecciones de minerales clasificados por su composici�n qu�mica, y vitrinas murales con ejemplares de exhibici�n procedentes de todo el mundo.;Renfe: Cantoblanco Universidad;;0;http://www.madrid.es/vgn-ext-templating/v/index.jsp?vgnextchannel=9e4c43db40317010VgnVCM100000dc0ca8c0RCRD&vgnextoid=255aef4d7f71c010VgnVCM1000000b205a0aRCRD;COLMENAR VIEJO;CARRETERA;KM.;19000;4�;;;FACULT. DE CIENCIAS - U. AUTONOMA. m�dulo M-06;MADRID;MADRID;28049;EL GOLOSO;FUENCARRAL-EL PARDO;0;0;;;914 974 125;;museo.mineralogia@uam.es;/contenido/entidadesYorganismos/Museos
2112;Museo de San Isidro. Los or�genes de Madrid; Este espacio museogr�fico propone un viaje por la historia de la ciudad de Madrid desde la Prehistoria hasta el establecimiento de la Corte, a trav�s de distintas salas como la de San Isidro, el Patio Renacentista, el Jard�n Arqueobot�nico o el Almac�n Visitable.  ;   General:  de martes a domingo y festivos de 9:30 a 20 horas   Agosto:  de martes a viernes de 9:30 a 14:30 horas y s�bados, domingos y festivos de 9:30 a 20 horas   Cerrado:  todos los lunes, 1 y 6 de enero, 1 de mayo y 25 de diciembre   24 y 31 de diciembre:  el museo permanecer� abierto de 10 a 14 horas  ;"  Sala de investigadores - Biblioteca especializada en arqueolog�a e historia madrile�a - Archivo documental - El almac�n visitable (m�s de 600 piezas arqueol�gicas) y el Jard�n arqueobot�nico (con informaci�n documentada sobre las especies de la ciudad)  Exposici�n permanente: &quot;Or�genes: Un viaje al pasado de Madrid&quot;. Un recorrido a trav�s de la evoluci�n del territorio madrile�o y de sus pobladores hasta el establecimiento de la Corte en 1561. Con proyecciones en 3D estereosc�picas que permiten a los visitantes interactuar con animales de hace 40.000 a�os procedentes de excavaciones madrile�as.      Otros espacios visitables: las estancias de San Isidro, as� como una importante colecci�n de iconograf�a de San Isidro y de Santa Mar�a de la Cabeza.   Investigadores: los fondos del Museo est�n a disposici�n de la comunidad cient�fica y los investigadores podr�n acceder a ella con una simple petici�n formal a la direcci�n.  Visitas guiadas por voluntarios culturales. Talleres did�cticos para grupos escolares.  "; Metro: Latina , Tirso de Molina  Bus: 3 , 17 , 18 , 23 , 35 , 60 , 65 , 148 ;;1;http://www.madrid.es/vgn-ext-templating/v/index.jsp?vgnextchannel=9e4c43db40317010VgnVCM100000dc0ca8c0RCRD&vgnextoid=7b7aef4d7f71c010VgnVCM1000000b205a0aRCRD;SAN ANDRES;PLAZA;V;2;;;;;MADRID;MADRID;28005;PALACIO;CENTRO;439795;4473945;40.412069631779325;-3.710874934826838;913 667 415;;museosanisidro@madrid.es;/contenido/entidadesYorganismos/Museos
85301;Museo de Sanidad e Higiene P�blica; Ubicado en las antiguas dependencias del Laboratorio de Microbiolog�a del Hospital del Rey. 800  m2  conservados tal cual su antiguo uso, con fondos de mobiliario, instrumental y bibliograf�a de los antiguos hospitales para enfermos infecciosos del complejo. Se resaltan hitos hist�ricos relevantes en salud p�blica mediante l�minas enmarcadas.  ; Consultar telef�nicamente ;; Metro: Chamart�n (l�neas 1, 10), Plaza de Castilla (1, 9, 10)  Bus: 124, 67 , 134 , 135 , 147  Renfe: Chamart�n ; Las  visitas guiadas a grup os se realizan de lunes a viernes de 10 a 14 horas, previa cita telef�nica (tel�fono: 918 222 334) o a trav�s de la direcci�n de correo electr�nico:  museo@iscii.es  ;0;http://www.madrid.es/vgn-ext-templating/v/index.jsp?vgnextchannel=9e4c43db40317010VgnVCM100000dc0ca8c0RCRD&vgnextoid=3e755c2cdc41c010VgnVCM2000000c205a0aRCRD;MONFORTE DE LEMOS;AVENIDA;V;5;;;;;MADRID;MADRID;28029;LA PAZ;FUENCARRAL-EL PARDO;441617;4480968;40.47546597881768;-3.6900603941123107;"918 222 334 / 2320     
";;museodesanidad@iscii.es;/contenido/entidadesYorganismos/Museos
187029;Museo del Atl�tico de Madrid;" En el Museo del Atl�tico de Madrid &amp; Colecci�n Pablo Ornaque se puede disfrutar de un recorrido hist�rico por el f�tbol en general, y del Atl�tico de Madrid, en particular, donde los aficionados al f�tbol no s�lo contemplar�n trofeos y objetos, sino tambi�n  un museo deportivo con piezas de gran valor muse�stico que alberga en sus vitrinas.   Se realizan visitas guiadas al estadio y a las instalaciones del Museo ";   Horarios del Museo    De martes a domingo, de 11 a 19 horas.  D�as de partido: desde las 11 horas hasta el inicio del encuentro.     Horarios de las visitas guiadas    De martes a domingo a las 12, 13, 16:30 y 17:30 horas  Verano (de 28 de junio al 14 de septiembre): de martes a viernes a las 12, 13, 16:30 y 17:30 horas    ;; Metro: Pir�mides (l�nea 5), Marqu�s de Vadillo (l�nea 5)  Bus: 23, 34, 35, 36, 50, 116, 118, 119 ;;0;http://www.madrid.es/vgn-ext-templating/v/index.jsp?vgnextchannel=9e4c43db40317010VgnVCM100000dc0ca8c0RCRD&vgnextoid=e41ad2bec675e010VgnVCM1000000b205a0aRCRD;VIRGEN DEL PUERTO;PASEO;V;67;;;;;MADRID;MADRID;28005;IMPERIAL;ARGANZUELA;438902;4472770;40.40141951261679;-3.7212862502237236;913 650 931 / 913 666 568 / 902 260 403;;;/contenido/entidadesYorganismos/Museos
2066;Museo del Ferrocarril de Madrid;Edificio de caracter monumental. Construido como cabecera de la l�nea Madrid - Extremadura - Portugal en el a�o 1880 por E. Cachelievre.;"  De martes a viernes de 9 a 15 horas.   S�bados de 10 a 20 horas.   Domingos de 10 a 15 horas.   Cerrado los lunes (incluidos festivos), del 16 al 31 de agosto (ambos inclusive), y los d�as 1 y 6 de enero, 1 de mayo y 25 de diciembre.   Con motivo de la celebraci�n del &lsquo;Mercado de Motores&rsquo; el segundo fin de semana de cada mes de enero a junio, el horario del Museo (cuyo espacio visitable estar� restringido a su Nave Central) ser� de 11 a 22 horas y el acceso ser� gratuito. ";  Tienda  Teatro  Librer�a  Cafeter�a  Servicio Documental  Salas de Modelismo Ferroviario, de Tracci�n, de Infraestructura, de Relojes, Faustino GArc�a Linares  Enclavamiento hidr�ulico de Algodor    Actividades    Mercadillo de modelismo (primeros domingos de cada mes)  Actividades para escolares  ; Metro: Delicias (l�nea 3)  Bus: 8 , 19 , 45 , 47 , 59 , 85 , 86  Renfe: Delicias ;;1;http://www.madrid.es/vgn-ext-templating/v/index.jsp?vgnextchannel=9e4c43db40317010VgnVCM100000dc0ca8c0RCRD&vgnextoid=091c4291ae91f010VgnVCM2000000c205a0aRCRD;DELICIAS;PASEO;V;61;;;;;MADRID;MADRID;28045;DELICIAS;ARGANZUELA;441233;4472625;40.400281290485566;-3.693817192160563;"902 228 822                                                      
";;museodelicias@ffe.es;/contenido/entidadesYorganismos/MonumentosEdificiosArtisticos
2058;Museo del Prado; Construido inicialmente como Museo de Ciencias Naturales, este edificio neocl�sico fue transformado en pinacoteca de las Colecciones Reales en 1818 con colecciones de pintura, dibujos, grabados, monedas y medallas desde el Rom�nico hasta el siglo XIX. ;  De lunes a s�bado de 10 a 20 horas . Domingos y festivos de 10 a 19 horas    Cerrado:  1 de enero, 1 de mayo y 25 de diciembre   Horario reducido:  6 de enero, 24 y 31 de diciembre de 10 a 14 horas   Horario de taquillas: a cceso al Museo hasta 30 minutos antes del cierre (el desalojo de las salas comienza 10 minutos antes del cierre) ;Accesible a personas con discapacidad f�sica - Audiogu�as tem�ticas, audiogu�a infantil - Librer�a - Tienda - Cafeter�a - Restaurante - Guadarropa; Metro: Atocha (l�nea 1), Banco de Espa�a (l�nea 2), Retiro (l�nea 2)  Bus: 9, 10, 14, 19, 27, 34, 37, 45  Renfe: Atocha ;  Arquitecto : Juan de Villanueva (1785 - 1808)   Adecuaci�n : Antonio L�pez Aguado (1818 - 1831)   Ampliaci�n : Rafael Moneo (2000 - 2007) ;1;http://www.madrid.es/vgn-ext-templating/v/index.jsp?vgnextchannel=9e4c43db40317010VgnVCM100000dc0ca8c0RCRD&vgnextoid=060079262ef5d010VgnVCM1000000b205a0aRCRD;RUIZ DE ALARCON;CALLE;V;23;;;;;MADRID;MADRID;28014;LOS JERONIMOS;RETIRO;441456;4474099;40.41357557281165;-3.6913253533221817;913 302 800;;;/contenido/entidadesYorganismos/Museos
2086;Museo del Reloj Grassy;  Arquitecto : Eladio Laredo Carranza (1916 - 1917).  Fundado por el relojero franc�s Grassy en 1955, este museo narra la historia de este aparato de medici�n. Sus fondos, colecci�n privada, constan de m�s de quinientos ejemplares de diferentes nacionalidades y los m�s variados estilos.  ; Jueves de 18 a 19 horas y viernes de 11 a 12 horas.  Las visitas se efect�an con cita previa llamando al  tel�fono 915 321 007 . Se encuentra en la Joyer�a Grassy, por tanto no se admiten visitas de grupos. ;; Metro: Banco de Espa�a (l�nea 2), Sevilla (l�nea 2)  Bus: 1, 2, 5, 9, 15, 20, 51, 52, 53, 74, 146, 150 ;;0;http://www.madrid.es/vgn-ext-templating/v/index.jsp?vgnextchannel=9e4c43db40317010VgnVCM100000dc0ca8c0RCRD&vgnextoid=daeaef4d7f71c010VgnVCM1000000b205a0aRCRD;GRAN VIA;CALLE;V;1;;;;;MADRID;MADRID;28013;CORTES;CENTRO;440889;4474721;40.41913869883697;-3.6980657388420255;915 321 007;;;/contenido/entidadesYorganismos/Museos
7685664;Museo del Robot; El Museo del Robot  nace con la idea de acercar de una forma directa y real el apasionante mundo de los robots de entretenimiento a cualquier tipo de p�blico.;  Visitas guiadas regulares  (entrada libre NO disponible):   Martes a viernes: pases a las 13, 17 y 20 horas    Visitas guiadas para grupos:    Martes, mi�rcoles y Jueves, pases (solo ma�anas) de 10:30 a 12:00 horas  ;  Exposici�n permenente  Visitas guiadas  ; Metro: San Bernardo (l�neas 2, 4)  Bus: 3, 21, 147 ;;0;http://www.madrid.es/vgn-ext-templating/v/index.jsp?vgnextchannel=9e4c43db40317010VgnVCM100000dc0ca8c0RCRD&vgnextoid=e0b7b8dc8f719410VgnVCM1000000b205a0aRCRD;ALBERTO AGUILERA;CALLE;V;1;BAJA;;;;MADRID;MADRID;28015;UNIVERSIDAD;CENTRO;440151;4475876;40.42949061464909;-3.7068731815207014;914 478 808;;;/contenido/entidadesYorganismos/Museos
2059;Museo del Romanticismo;;  Verano (del 2 de mayo al 31 de octubre):  de martes a s�bados de 9:30 a 20:30 horas. Domingos y festivos de 10 a 15 horas. Jueves de agosto se cierra a las 00 horas (Museo y Caf� del Jard�n).   De 1 de Noviembre a 30 de Abril:  de martes a s�bado, de 9:30 a 18:30 horas. Domingos y festivos, de 10 a 15 horas.   Cerrado: todos los lunes, d�as 1 y 6 de enero, 1 de mayo, 24, 25 y 31 de diciembre y un festivo local (15 de mayo)  La Tienda y el Caf� del Jard�n se regir�n por el mismo horario de invierno. ;  Biblioteca   Sala de exposiciones  Sal�n de actos  Acceso para minusv�lidos   Librer�a  ; Metro: Tribunal (l�neas 1 y 10), Alonso Mart�nez (l�neas 4, 5 y 10)  Bus: 3, 37, 40 y 149  Renfe: Recoletos ;  Visitas guiadas:  todos los s�bados, (excepto el 16 de abril y el 8 de octubre) a las 11 y 13 horas. Actividad gratuita y sin reserva.   Descripci�n monumental   Construido para casa palacio del Marqu�s de Montallana por el disc�pulo de Ventura Rodr�guez, Manuel Mart�n Rodr�guez, dentro de unas l�neas clasicistas, tiene algunas leves reminiscencias del barroco, como las molduras en forma de orejeras en los balcones. Las estancias nobles se organizan en torno a dos patios cuadrados. Conserva un interesante jard�n rom�ntico.  En 1850 fue comprado por el Marqu�s de la Puebla de Maestre. Tras albergar la Comisar�a Regia de Turismo. En 1924 se convirti� en Museo Rom�ntico y desde entonces ha sido restaurado e intervenido en diversas ocasiones con motivo de su funcionamiento como museo.  Tras nueve a�os cerrado ha sido reformado y puesto a punto, en aplicaci�n de un plan museol�gico consistente en su renovaci�n, ampliando su �mbito expresivo desde lo meramente literario hasta lo hist�rico, pol�tico, art�stico y decorativo, para dar una visi�n de conjunto de esta etapa de la vida espa�ola.   Muestra la ambientaci�n de una casa rom�ntica. Posee obras de los pintores m�s importantes del siglo XIX (Goya, Madrazo y otros) junto a esculturas, muebles, porcelanas, abanicos y todo tipo de complementos decorativos que nos recuerdan la forma de vida de una familia burguesa del siglo XIX ;0;http://www.madrid.es/vgn-ext-templating/v/index.jsp?vgnextchannel=9e4c43db40317010VgnVCM100000dc0ca8c0RCRD&vgnextoid=706cef4d7f71c010VgnVCM1000000b205a0aRCRD;SAN MATEO;CALLE;V;13;;;;;MADRID;MADRID;28004;JUSTICIA;CENTRO;440834;4475467;40.42585510296794;-3.6987835425963063;914 481 045 / 914 480 163;914 456 940;informacion.romanticismo@mecd.es;/contenido/entidadesYorganismos/Museos
6337393;Museo del Seguro. Fundaci�n Mapfre; Ubicado en el edificio de FUundaci�n MAPFRE exhibe una amplia colecci�n de piezas relacionadas con la historia de la actividad aseguradora desde el siglo  XVIII  hasta nuestros d�as.  ; De lunes a Viernes previa petici�n de hora.  ;  Visitas guiadas y gratuitas para grupos  Visitas individuales gratuitas con audiogu�a  ; Metro: Col�n (l�nea 4)  Bus: 5, 14, 21, 27, 37, 45, 53, 150  Renfe: Recoletos ;;0;http://www.madrid.es/vgn-ext-templating/v/index.jsp?vgnextchannel=9e4c43db40317010VgnVCM100000dc0ca8c0RCRD&vgnextoid=479b95f8c72d5310VgnVCM2000000c205a0aRCRD;BARBARA DE BRAGANZA;CALLE;V;14;;;;;MADRID;MADRID;28004;JUSTICIA;CENTRO;441233;4475245;40.42388355388781;-3.694059645939101;"91 581 20 08 (para reservas)                                 
";;;/contenido/entidadesYorganismos/Museos
2115;Museo del Traje. Centro de Investigaci�n del Patrimonio Etnol�gico (CIPE); Edificio de car�cter monumental, construido por Jaime L�pez de Asia�n en 1969. Se caracteriza por su estructura de hormig�n y su exterior de placas met�licas y triple acristalamiento. ; De martes a s�bado de 9:30 a 19 horas. Domingos y festivos de 10 a 15 horas.  Verano (julio y agosto): los jueves se amplia el horario hasta las 22:30 horas.  Cerrado: todos los lunes, 1 y 6 de enero, 1 de mayo, 9 de noviembre, 24, 25 y 31 de diciembre. ;  Visitas comentadas para grupos:  de 15 a 25 personas (con reserva previa) durante todo el a�o.   Visitas guiadas a la exposici�n permanente   Para participar en las visitas guiadas es necesario inscribirse previamente en el  tel�fono 915 504 708 (de lunes a viernes de 10 a 14 horas)  o por el email en   difusion.reservas.mt@mcu.es    ; Metro: Moncloa (l�neas 3, 6), Ciudad Universitaria (l�nea 6)  Bus: 46, 82, 83, 132, 133, G ;;1;http://www.madrid.es/vgn-ext-templating/v/index.jsp?vgnextchannel=9e4c43db40317010VgnVCM100000dc0ca8c0RCRD&vgnextoid=053c4291ae91f010VgnVCM2000000c205a0aRCRD;JUAN DE HERRERA;AVENIDA;V;2;;;;;MADRID;MADRID;28040;CIUDAD UNIVERSITARIA;MONCLOA-ARAVACA;438382;4477019;40.439657822278555;-3.7278378564088275;915 504 700 (Informaci�n);915 446 970;museodeltraje@mecd.es;/contenido/entidadesYorganismos/Museos
2074;Museo Geominero; Construcci�n t�pica de la arquitectura en hierro y cristal de principios del siglo XX que alberga colecciones de minerales, rocas y f�siles procedentes de todas las regiones espa�olas y de antiguos territorios coloniales, as� como de yacimientos significados del registro mundial. ; De lunes a domingo y festivos de 9 a 14 horas. Cerrado: 1 y 6 de enero y 24, 25 y 31 de diciembre ;; Metro: R�os Rosas (l�nea 1)  Bus: 3, 12, 37, 45, 149 ;  Visitas guiadas:  para grupos de lunes a viernes, previa petici�n cita   Objetivos del Museo : conservar, investigar y difundir el patrimonio geol�gico, paleontol�gico y mineral�gico  ;0;http://www.madrid.es/vgn-ext-templating/v/index.jsp?vgnextchannel=9e4c43db40317010VgnVCM100000dc0ca8c0RCRD&vgnextoid=ff0bef4d7f71c010VgnVCM1000000b205a0aRCRD;RIOS ROSAS;CALLE;V;23;;;;;MADRID;MADRID;28003;RIOS ROSAS;CHAMBERI;440773;4477266;40.44205696051332;-3.6996705622841457;913 495 759;913 495 828;m.geominero@igme.es;/contenido/entidadesYorganismos/Museos
2075;Museo Hist�rico Minero Don Felipe de Borb�n y Grecia;Ubicado en la Escuela T�cnica Superior de Ingenieros de Minas; Previa cita concertada para grupos   Mercadillo de minerales y f�siles:  primer domingo de cada mes de 10 a 14 horas (en este per�odo se podr� visitar tambi�n el museo y la mina)   Exposici�n anual  el segundo fin de semana (viernes, s�bado y domingo) de marzo (el Museo permanecer� abierto todo el d�a) ;  Visitas guiadas   Colecci�n de minerales, f�siles y rocas   Secci�n de maquetas y utensilios utilizados tradicionalmente en la miner�a   Visita a mina experimental (pozo, castillete, galer�as y testeros)  ; Metro: R�os Rosas (l�nea 1)  Bus: 3, 12, 37, 45, 149 ;;0;http://www.madrid.es/vgn-ext-templating/v/index.jsp?vgnextchannel=9e4c43db40317010VgnVCM100000dc0ca8c0RCRD&vgnextoid=822bef4d7f71c010VgnVCM1000000b205a0aRCRD;RIOS ROSAS;CALLE;V;21;;;;;MADRID;MADRID;28003;RIOS ROSAS;CHAMBERI;440712;4477269;40.44207963042673;-3.7003900716027776;913 367 029;913 367 068;;/contenido/entidadesYorganismos/Museos
6019032;Museo Los Ca�os del Peral. Estaci�n de Metro �pera;; Viernes, s�bados y domingos de 11 a 13 y de 17 a 19 horas ;;;  Museo Los Ca�os del Peral   La estaci�n de �pera cuenta en su interior con el mayor museo arqueol�gico bajo tierra de Madrid, un espacio de 200 metros cuadrados donde se pueden ver restos arqueol�gicos de los siglos  XVI  y  XVII  pertenecientes a la Fuente de los Ca�os del Peral, el Acueducto de Amaniel y la Alcantarilla del Arenal.  A principios del siglo  XVI  el agua no llegaba a las casas de Madrid a pesar de ser un elemento indispensable en el desarrollo de la ciudad y realizaban el abastecimiento mediante aljibes o pilas instaladas en las plazas y junto a puertas y murallas. En la Edad Moderna, las fuentes p�blicas sustituyeron a los aljibes, y parte de esas fuentes es lo que encontramos hoy en �pera.  La Fuente de los Ca�os del Peral contaba con seis ca�os y sus correspondientes pilas. El agua proced�a del manantial de aguas gordas existentes en la plazuela de los Ca�os.  El Acueducto de Amaniel se remonta a comienzos del siglo  XVII , nac�a en la actual Dehesa de la Villa y surt�a agua al Palacio real.  La Alcantarilla del Arenal vino a paliar el problema de la evacuaci�n de las aguas sucias, por eso se canaliz� para que desembocara en el arroyo de Leganitos, en alg�n punto de la actual Cuesta de San Vicente.  Elementos hidr�ulicos que acercan la historia a todos los visitantes que adem�s, tienen la posibilidad de acceder a la sala de audiovisuales para conocer la historia de los vestigios expuestos. ;1;http://www.madrid.es/vgn-ext-templating/v/index.jsp?vgnextchannel=9e4c43db40317010VgnVCM100000dc0ca8c0RCRD&vgnextoid=435950262d50f210VgnVCM2000000c205a0aRCRD;ISABEL II;PLAZA;V;1;;;;Estaci�n de �pera (l�neas 2, 5 y Ramal);MADRID;MADRID;28013;PALACIO;CENTRO;439943;4474575;40.41775560280743;-3.709202070089538;902 444 403 (Informaci�n);;;/contenido/entidadesYorganismos/Museos
2053;Museo L�zaro Galdiano;;  Lunes y de mi�rcoles a s�bados de 10 a 16,30 horas.  Domingos de 10 a 15 horas.  Cerrado todos los martes, 1 y 6 de enero, 28 y 29 de marzo, 1 y 15 de mayo, 15 de agosto, 1 de noviembre y 24, 25 y 31 de diciembre.    Visitas guiadas  al Museo fuera de horario: de 17:30 a 18:45 horas, previa reserva telef�nica en el 915 616 084 (extensi�n 101).    Horario para reserva telef�nica: de lunes a jueves, de 8,30 a 16,30 horas, viernes hasta las 14 horas.   Importe: 2 euros (entrada al museo).   Mi�rcoles y jueves: para grupos previamente constituidos.   Viernes para visitantes individuales reunidos para la visita.   ;; Bus: 9, 12, 16, 19, 51, 61  ;;1;http://www.madrid.es/vgn-ext-templating/v/index.jsp?vgnextchannel=9e4c43db40317010VgnVCM100000dc0ca8c0RCRD&vgnextoid=7d1aef4d7f71c010VgnVCM1000000b205a0aRCRD;SERRANO;CALLE;V;122;;;;;MADRID;MADRID;28006;CASTELLANA;SALAMANCA;441911;4476668;40.436750328725985;-3.6861980129207894;915 616 084;915 617 793;secretaria.fundacion@flg.es;/contenido/entidadesYorganismos/MonumentosEdificiosArtisticos
2103;Museo M�dico Farmace�tico;;De lunes a viernes de 8 a 15 horas;; Metro: Guzm�n el Bueno (l�neas 6, 7)  Bus: 44, 45, F, C ;;0;http://www.madrid.es/vgn-ext-templating/v/index.jsp?vgnextchannel=9e4c43db40317010VgnVCM100000dc0ca8c0RCRD&vgnextoid=153bef4d7f71c010VgnVCM1000000b205a0aRCRD;REINA VICTORIA;AVENIDA;V;26;;;;;MADRID;MADRID;28003;CIUDAD UNIVERSITARIA;MONCLOA-ARAVACA;439966;4477857;40.44732295324816;-3.7092415521608646;;;;/contenido/entidadesYorganismos/Museos
5349304;Museo Nacional Centro de Arte Reina Sof�a (MNCARS);  Edificio Sabatini:  calle Santa Isabel 52.   Edificio Nouvel  (ampliaci�n): ronda de Atocha, esquina a plaza del Emperador Carlos V.   Espacios completamentarios en el Parque de El Retiro:  Palacio de Vel�zquez y Palacio de Cristal ;  De lunes a s�bado de 10 a 21 horas y domingos de 10 a 19 horas (de 14:30 a 19 horas se pueden visitar la Colecci�n 1, Edificio Sabatini planta 2,. El resto de las exposiciones temporales y la Colecci�n, permanecen cerradas).  Martes cerrado (incluso festivos)  Cerrado los d�as 1 y 6 de enero, 1 de mayo, 15 de mayo, 9 de noviembre y 24, 25 y 31 de diciembre   El horario de la taquilla finaliza 30 minutos antes de la hora del cierre del museo.  ;  Biblioteca y centro de documentaci�n  Acceso y servicios para personas con discapacidad  Audiogu�as  Librer�a y tienda  Punto de informaci�n (domingos de 10 a 14 horas)  Cafeter�a y restaurante  Cajero 4B  Servicio de informaci�n  Club de talleres infantiles (informaci�n de actividades, descuentos y promociones)  Aparcamiento para biciletas, en la entrada de la plaza Nouvel, a ambos lados del Edificio Sabatini  Aparcamientos p�blicos de veh�culos cercanos: estaci�n ferroviaria de Atocha y plaza S�nchez Bustillo  ; Metro: Atocha (l�nea 1)  Bus:  6 , 8 , 10 , 14 , 19 , 24 , 26 , 27 , 32 , 34 , 36 , 37 , 41 , 45 , 47 , 54 , 55 , 57 , 59 , 60 , 78 , 85 , 86 , 102 , 116 , 118 , 119 , 141 , 148 , 247 , E3 , Circular  Renfe: C2, C3, C4, C5, C7, C8, C10 ;;1;http://www.madrid.es/vgn-ext-templating/v/index.jsp?vgnextchannel=9e4c43db40317010VgnVCM100000dc0ca8c0RCRD&vgnextoid=69d8275bad5a1210VgnVCM2000000c205a0aRCRD;SANTA ISABEL;CALLE;V;52;;;;;MADRID;MADRID;28012;EMBAJADORES;CENTRO;441222;4473541;40.40853230723727;-3.6940315586451433;"917 741 000                                                                         
";917 741 056;info@museoreinasofia.es;/contenido/entidadesYorganismos/Museos
2057;Museo Nacional de Antropolog�a; El Museo Nacional de Antropolog�a ofrece al p�blico una visi�n global de la cultura de diferentes pueblos y  establece las semejanzas o diferencias culturales que les unen o separan para poner de manifiesto la riqueza y diversidad de las culturas existentes a lo largo del mundo, favorece la comprensi�n intelectual y promueve la tolerancia hacia otros pueblos y otras culturas. El Museo est� instalado en el edificio de estilo clasicista construido por el Marqu�s de Cubas en 1875 por encargo del Doctor Gonz�lez Velasco, fundador de la instituci�n. ;"  De martes a s�bado de 9:30 a 20 horas, domingos y festivos de 10 a 15 horas.  Cerrado: todos los lunes; 1 de enero; 1 de mayo;  24, 25 y 31 de diciembre y dos festivos locales.  "; Biblioteca (especializaci�n en antropolog�a, servicio de pr�stamo interbibliotecario y reprograf�a) - Guardarropa - Servicio de voluntarios - Visitas guiadas de grupos, previa petici�n.  La biblioteca est� cerrada temporalmente por obras. ; Metro: Atocha  Bus: 6, 7,10, 14, 19, 24, 26, 27, 32, 34, 37, 45, 85, 150, C  Renfe: Atocha ;;1;http://www.madrid.es/vgn-ext-templating/v/index.jsp?vgnextchannel=9e4c43db40317010VgnVCM100000dc0ca8c0RCRD&vgnextoid=456079262ef5d010VgnVCM1000000b205a0aRCRD;ALFONSO XII;CALLE;V;68;;;;;MADRID;MADRID;28014;LOS JERONIMOS;RETIRO;441659;4473466;40.40788746746481;-3.6888747083604834;"915 306 418                                                                                                
";914 677 098;antropologico@mcu.es;/contenido/entidadesYorganismos/Museos
2055;Museo Nacional de Artes Decorativas; Inaugurado en 1912, su sede es un t�pico palacete madrile�o del �ltimo tercio del siglo XIX. El museo posee muebles, cer�micas, vidrios, joyas, tejidos, arte oriental, y hasta 30.000 objetos distintos que a lo largo de la historia han servido para embellecer las casas, palacios y los monumentos de distintas culturas.  El museo posee muestras como el Jarr�n de Sevres regalo de Napole�n III, la Cocina Valenciana del siglo XVIII compuesta por m�s de 1.500 azulejos de Manises, la Mesa de plata del siglo XVI o la colecci�n de alfombras espa�olas de los siglos XV al XVII. ;  De martes a s�bados de 9:30 a 15 horas.   Jueves tarde de 17 a 20 horas.  Cerrado los jueves de julio y agosto.  Domingos y festivos de 10 a 15 horas.   Cerrado: todos los lunes del a�o, y los d�as 1 y 6 de enero, 1 y 15 de mayo, 24, 25 y 31 de diciembre.  ;  Exposici�n de piezas espa�olas y de procedencia extranjera.     Visitas guiadas a la colecci�n permanente.   Los gu�as voluntarios del Museo Nacional de Artes Decorativas ofrecen visitas gratuitas a la colecci�n permanente los domingos a las 11:30 horas para todos los visitantes y de martes a viernes a grupos (previa petici�n de hora en el 915 326 499 -  Ext.  101).   Visitas guiadas individuales  los domingos a las 11:30 horas    Informaci�n y reservas para grupos:  915 326 499.  Ext.  101 (En caso de cancelaci�n de la visita, se ruega avisar telef�nicamente) ; Metro: Banco de Espa�a (l�nea 2) , Retiro (l�nea 2)  Bus: 1, 2, 5, 9, 10, 14, 15, 16, 19, 20, 27, 28, 34, 37, 45, 51, 52, 53, 74, 146, 148, 150  Cercan�as: Recoletos ;;0;http://www.madrid.es/vgn-ext-templating/v/index.jsp?vgnextchannel=9e4c43db40317010VgnVCM100000dc0ca8c0RCRD&vgnextoid=287079262ef5d010VgnVCM1000000b205a0aRCRD;MONTALBAN;CALLE;V;12;;;;;MADRID;MADRID;28014;LOS JERONIMOS;RETIRO;441590;4474576;40.4178910680573;-3.689790044810553;915 326 499 / 915 326 845;915 232 086;mnad@mnad.mcu.es;/contenido/entidadesYorganismos/MonumentosEdificiosArtisticos
2083;Museo Nacional de Ciencia y Tecnolog�a; Situado en la antigua estaci�n de Delicias. El contenido de la colecci�n se basa en instrumentos cient�ficos, m�quinas industriales, aparatos de sonido e imagen.  Exposiciones permanentes: Tiempos precisos, de relojes y Vivir m�s y mejor: nuestra meta ;" De martes a s�bado de 10 a 14 y de 16 a 18 horas. Domingo y festivos de 10 a 14:30 horas.  Verano (julio y agosto): de martes a s�bado de 9 a 15 horas; domingos y festivos de 10 a 14:30 horas.   Cerrado: lunes, d�as 1 y 6 de enero, 1 y 15 de mayo y  24, 25 y 31 de diciembre  ";; Metro: Delicias (l�nea 3)  Bus: 8 , 19 , 45 , 47 , 59 , 85 , 86 ;;1;http://www.madrid.es/vgn-ext-templating/v/index.jsp?vgnextchannel=9e4c43db40317010VgnVCM100000dc0ca8c0RCRD&vgnextoid=fbcbef4d7f71c010VgnVCM1000000b205a0aRCRD;DELICIAS;PASEO;V;61;;;;;MADRID;MADRID;28045;DELICIAS;ARGANZUELA;441233;4472625;40.400281290485566;-3.693817192160563;916 037 400 / 916 037 401 (exposiciones) / 916 037 405  (visitas guiadas);;infomuseo@muncyt.es;/contenido/entidadesYorganismos/Museos
2056;Museo Nacional de Ciencias Naturales;Construido por Fernando de la Torriente en 1881 con hierro y cristal. De estructura muy similar a los pabellones con destino a exposiciones constru�dos en la �poca. Sus jardines albergan un estanque, el monumento a Isabel la Cat�lica y el monumento a la Constituci�n de 1978.; De martes a viernes, domingos, festivos y lunes festivos de 10 a 17 horas. S�bados, domingos previos a festivos de 10 a 20 horas. S�bados de julio y agosto de 10 a 15 horas.   Cerrado : todos los lunes no festivos, 1 y 6 de enero, 1 de mayo y 25 de diciembre   Biblioteca : de lunes a jueves de 9 a 20 y viernes de 9 a 15 horas. Julio y agosto: de lunes a viernes de 9 a 14,30 horas    Mediateca  (cerrada por obras). ; Biblioteca de Zoolog�a, Entomolog�a, Econolog�a, Evoluci�n, Geolog�a y Paleontolog�a (consulta en sala, informaci�n y referencia, reprograf�a, pr�stamo personal e interbibliotecario), Archivo, publicaciones, consulta y asesoramiento cient�fico y t�cnico, exposiciones permanentes y temporales, actividades culturales, talleres, cursos, Sala de proyecciones. Librer�a especializada. ; Metro: Gregorio Mara��n (l�neas 7, 10)  Bus: 7, 12, 14, 27, 40, 45, 147, 150 ;  Exposiciones permanentes     Minerales, f�siles y evoluci�n humana:  f�siles, meteoritos, minerales, rocas y la evoluci�n humana    Mediterr�neo, naturaleza y civilizaci�n:  la fauna m�s destacada del �rea mediterr�nea espa�ola y los ecosistemas que dan forma a sus paisajes.   El Real Gabinete de Historia Natural:  piezas emblem�ticas del antiguo Real Gabinete de 1771 y otras de gran valor hist�rico.   El Jard�n educativo del monte mediterr�neo:  bajo este nombre est�n representados ambientes bot�nicos con especies propias de esta regi�n, que tienen un bajo requerimiento h�drico y que muchas de ellas est�n presentes en la Comunidad de Madrid.   El almac�n de aves y mam�feros:  custodia las m�s importantes colecciones zool�gicas y geol�gicas de Espa�a con m�s de 8 millones de ejemplares.   Jard�n de piedras:  conjunto al aire libre de rocas y troncos fosilizados.   Esqueleto de ballena roncual : cedido por el gobierno andaluz, con m�s de 20 metros y 1.500 kilos. La ballena qued� varada en 2008 en la playa de Cortijo Blanco, en Marbella,     Talleres y visitas especiales para discapacitados visuales e intelectuales,   para grupos:  concertar en los tel�fonos 915 646 169 y 914 111 328 ext.  1165 ( de lunes a viernes de 10 a 14 horas) ;1;http://www.madrid.es/vgn-ext-templating/v/index.jsp?vgnextchannel=9e4c43db40317010VgnVCM100000dc0ca8c0RCRD&vgnextoid=8edbef4d7f71c010VgnVCM1000000b205a0aRCRD;JOSE GUTIERREZ ABASCAL;CALLE;V;2;;;;;MADRID;MADRID;28006;EL VISO;CHAMARTIN;441578;4477079;40.44042943656617;-3.690161856630636;914 111 328 (centralita);915 645 078;museo@bib.csic.es;/contenido/entidadesYorganismos/MonumentosEdificiosArtisticos
2076;Museo Naval; Tem�tica: historia de la navegaci�n espa�ola  ;De martes a domingo de 10 a 19 horas. Cerrado: lunes,  d�as 1 y 6 de enero, viernes santo, 1 de mayo, d�a 16 de julio, y d�as 24, 25 y 31 de diciembre;; Metro: Banco de Espa�a (l�nea 2)  Bus: 9, 10, 14, 27, 34, 37, 45 ;;1;http://www.madrid.es/vgn-ext-templating/v/index.jsp?vgnextchannel=9e4c43db40317010VgnVCM100000dc0ca8c0RCRD&vgnextoid=a30cef4d7f71c010VgnVCM1000000b205a0aRCRD;PRADO;PASEO;V;5;;;;;MADRID;MADRID;28014;LOS JERONIMOS;RETIRO;441337;4474537;40.41751289873052;-3.692768317427539;915 238 516 (Cita previa visitas grupo);913 795 056;;/contenido/entidadesYorganismos/Museos
2085;Museo Postal y Telegr�fico; Recorrido tem�tico y cronol�gico por la evoluci�n de los medios de comunicaci�n y colecciones filat�licas de gran valor hist�rico, tem�ticas y por pa�ses. ;  Museo: de lunes a viernes de 9 a 14 y de 16 a 18 horas.   Biblioteca: de lunes a viernes de 9 a 14 horas.  ;;Bus: 161;  Visitas guiadas:  previa petici�n de hora, para grupos o coleccionistas e investigadores. Mediante la proyecci�n de videos y a trav�s de la visita, se puede conocer la historia del correo y del tel�grafo desde los or�genes hasta las nuevas tecnolog�as.  ;1;http://www.madrid.es/vgn-ext-templating/v/index.jsp?vgnextchannel=9e4c43db40317010VgnVCM100000dc0ca8c0RCRD&vgnextoid=c82cef4d7f71c010VgnVCM1000000b205a0aRCRD;TAPIA DE CASARIEGO;CALLE;V;6;;;;;MADRID;MADRID;28023;VALDEMARIN;MONCLOA-ARAVACA;434912;4480162;40.467706026917405;-3.7690721403206724;917 400 668 / 917 400 664 (Biblioteca);917 401 436;museopostaltelegrafico@correos.com;/contenido/entidadesYorganismos/MonumentosEdificiosArtisticos
4997114;Museo Sorolla;; De martes a s�bado: de 9:30 a 20 horas ininterrumpido   Domingo y festivos: de 10 a 15 horas  Cerrado: todos los lunes del a�o, 1 de enero, 1 de mayo, 24, 25 y 31 de diciembre, y dos festivos locales. ;Autogu�as, biblioteca y archivo ; Metro: Iglesia (l�nea 1), Rub�n Dar�o (l�nea 5), Gregorio Mara��n (l�neas 7, 10)  Bus: 5, 7, 14, 16, 27, 40, 45, 61, 147 y 150  ;;0;http://www.madrid.es/vgn-ext-templating/v/index.jsp?vgnextchannel=9e4c43db40317010VgnVCM100000dc0ca8c0RCRD&vgnextoid=6dd05e93aad9c110VgnVCM1000000b205a0aRCRD;GENERAL MARTINEZ CAMPOS;PASEO;V;37;;;;;MADRID;MADRID;28010;ALMAGRO;CHAMBERI;441382;4476506;40.43525376916864;-3.69241981045026;913 101 584;913 085 925;museo@msorolla.mcu.es;/contenido/entidadesYorganismos/Museos
2077;Museo Taurino de la Plaza de las Ventas; Su existencia data del d�a de San Isidro de 1951, creado por la extinta Diputaci�n Provincial de Madrid. Sirve como testimonio de los momentos estelares del arte y la historia del toreo  ;  Temporada taurina  (de marzo a octubre): de lunes a viernes de 9:30 a 14:30 horas. Domingos, festivos y d�as de festejo de 10 a 13 horas   Fuera de temporada  (de noviembre a febrero): de lunes a viernes de 9:30 a 14:30 horas ;; Metro: Ventas (l�neas 2, 5)  Bus: 12, 21, 38, 53, 106, 110, 146 ;;0;http://www.madrid.es/vgn-ext-templating/v/index.jsp?vgnextchannel=9e4c43db40317010VgnVCM100000dc0ca8c0RCRD&vgnextoid=958cef4d7f71c010VgnVCM1000000b205a0aRCRD;ALCALA;CALLE;V;237;;;;;MADRID;MADRID;28028;GUINDALERA;SALAMANCA;443885;4476078;40.43157110306013;-3.662872780933851;"917 251 857                 
";;;/contenido/entidadesYorganismos/Museos
2099;Museo Thyssen Bornemisza;   Arquitecto:  Antonio L�pez Aguado (1805 - 1806)   Adecuaci�n : Rafael Moneo (1989 - 1992)    Ampliaci�n : BOPBAA (1999 - 2004)   El Palacio donde se ubica la colecci�n fue el antiguo palacio del duque de Villahermosa. Edificaci�n neocl�sica. Posteriormente se transforma y adapta como entidad bancaria perdiento sus espacios interiores. A�os m�s tarde, pas� a formar parte de los edificios del Museo del Prado. Desde principios de los 90 alberga la Colecci�n Thyssen. El museo ofrece un recorrido por la historia de la pintura europea desde sus inicios en el siglo XIII, hasta finales del siglo XX.  ;;  Accesible a personas con discapacidad (f�sica y sensorial)   Folleto y se�alizaci�n en braille para invidentes  Librer�a  Tienda  Cafeter�a  Restaurante  Guardarropa  Servicio de venta anticipada en las taquillas  Servicio de Audio Gu�a  ; Metro: Banco de Espa�a (l�nea 2)  Bus: 1, 2,  5, 9, 10, 14, 15, 20, 27, 34, 37, 45, 51, 52, 53, 74, 146, 150  Renfe: Recoletos ;   Horario     Colecci�n permanente : de martes a domingo de 10 a 19 y s�bados hasta las 21 horas (exposiciones temporales). El desalojo de las Salas de Exposici�n tendr� lugar cinco minutos antes del cierre  El Museo cierra los d�as 1 de enero, 1 de mayo y el 25 de diciembre  Apertura gratuita todos los lunes del a�o, entre las 12 y las 16 horas    Horario de apertura durante el verano de 2014     Exposiciones temporales:  de 10 de junio a 14 de septiembre, las exposiciones temporales estar�n abiertas de 10 a 22 horas (de martes a s�bado) y de 10 a 19 horas (lunes y domingos). �ltimo acceso una hora antes del cierre   Cafeter�a - restaurante:  permanecer� abierta de 10 a 22 horas (de martes a s�bado) y de 10 a 19 horas (lunes y domingos)   Terrazas del Thyssen:  de 10 a 1 de la madrugada (de martes a s�bado) y de 10 a 19 horas (lunes y domingos)   Restaurante El Mirador del Museo:  �nicamente abierto para cenas (de martes a s�bado), desde las 20:20 horas hasta la 1 de la madrugada  ;1;http://www.madrid.es/vgn-ext-templating/v/index.jsp?vgnextchannel=9e4c43db40317010VgnVCM100000dc0ca8c0RCRD&vgnextoid=0b8079262ef5d010VgnVCM1000000b205a0aRCRD;PRADO;PASEO;V;8;;;;;MADRID;MADRID;28014;CORTES;CENTRO;441168;4474371;40.41600553697803;-3.694744831131079;"902 760 511 (Informaci�n general)                                                                                                                         
";914 202 780;inform@museothyssen.org;/contenido/entidadesYorganismos/MonumentosEdificiosArtisticos
2101;Museo Tiflol�gico;Edificio con una superficie de 1.500  m2  dividido en tres zonas con maquetas de monumentos nacionales e internacionales realizadas por ciegos e instrumentos utilizados por los invidentes desde hace 200 a�os. Es un espacio concebido para que sus visitantes puedan ver y tocar las piezas expuestas.; Martes a viernes de 10 a 14 horas y de 17 a 20 horas. S�bados de 10 a 14 horas. Lunes, domingos y festivos cerrado.  Las visitas de grupos se realizan previa reserva, de 8 a 15 horas, en el tel�fono de informaci�n:+34 915 894 219 ;Apropiado para ni�os a partir de 8 a�os; Metro: Estrecho  Bus: 3, 42, 64, 66, 124, 127 ;;1;http://www.madrid.es/vgn-ext-templating/v/index.jsp?vgnextchannel=9e4c43db40317010VgnVCM100000dc0ca8c0RCRD&vgnextoid=baacef4d7f71c010VgnVCM1000000b205a0aRCRD;LA CORU�A;CALLE;V;18;;;;;MADRID;MADRID;28020;CUATRO CAMINOS;TETUAN;440740;4478725;40.45519790204094;-3.7001960485997545;915 894 290;915 894 225;museo@once.es;/contenido/entidadesYorganismos/Museos
2063;Palacio de Liria; Constru�do por Ventura Rodr�guez entre 1762 y 1780 para el tercer Duque de Berwick y de Liria. De estilo barroco cl�sico. Destaca su fachada con columnas j�nicas y pilastras que descansan sobre un basamento almohadillado.  ; Viernes: visita guiada a las 10 horas, 11 horas y 12 horas.  Visitas: previa petici�n de cita por escrito o por fax ;; Metro: Ventura Rodr�guez (l�nea 3)  Bus: 1, 2, 44, 74, 133, C ;;0;http://www.madrid.es/vgn-ext-templating/v/index.jsp?vgnextchannel=9e4c43db40317010VgnVCM100000dc0ca8c0RCRD&vgnextoid=22bdef4d7f71c010VgnVCM1000000b205a0aRCRD;PRINCESA;CALLE;V;20;;;;;MADRID;MADRID;28008;UNIVERSIDAD;CENTRO;439663;4475582;40.42680681645222;-3.7125979731032404;91 547 53 02;91 541 03 77;;/contenido/entidadesYorganismos/MonumentosEdificiosArtisticos
2062;Palacio Real; Construido sobre el solar del antiguo Alc�zar tras un incendio en 1734. Proyectado por Juvara en 1735 y construido por Sachet de 1738 a 1764 bajo las influencias del clasicismo barroco. A partir de 1770, Sabatini a�adi� el ala sudeste y realiz� la gran escalera. Es de destacar el gran patio que articula el edificio y la fachada principal que aloja el balc�n y Escudo Real.  Dentro se encuentra el Museo Real Oficina de Farmacia (cerrado por obras de remodelaci�n). ;"  De octubre a marzo: de 10 a 18 horas.  De abril a septiembre: de 10 a 20 horas.  Cierre taquillas una hora antes.  Cerrado: 1 y 6 (acto oficial) de enero; 1 de mayo; 25 de diciembre de 2014.   Abierto: 17 y 18 de abril; 2 y 15 de mayo; 19 de junio; 15 de agosto; 1 y 10 de noviembre; 6, 8, 24 y 31 de diciembre de 2014: taquillas cerradas a las 14 y monumento a la 15 horas.   "; Librer�a. Exposici�n permanente Cuarteto Real (colecci�n de cinco stradivarius). Visita incluida en el precio de la entrada. M�s informaci�n: tel�fono 91 542 00 59. Accesible a personas con minusval�a (f�sica).   Iluminaci�n del Palacio : todos los d�as, del atardecer hasta las 2 de la madrugada   Cambio de guardia : primer mi�rcoles de cada mes (si la climatolog�a lo permite) a las 12 horas, en la Plaza de la Armer�a. Adem�s se producir� un cambio de guardia reducido el resto de mi�rcoles del mes a las 12 horas, en la Puerta del Pr�ncipe (Plaza de Oriente). Sin relevo: en julio, agosto y septiembre. ; Metro: �pera (l�neas 2, 5 y Ramal Opera Norte)  Bus: 3, 25, 39, 148 ;;1;http://www.madrid.es/vgn-ext-templating/v/index.jsp?vgnextchannel=9e4c43db40317010VgnVCM100000dc0ca8c0RCRD&vgnextoid=47ddef4d7f71c010VgnVCM1000000b205a0aRCRD;BAILEN;CALLE;V;0;;;;;MADRID;MADRID;28013;PALACIO;CENTRO;439649;4474910;40.42075212551193;-3.712699107286406;"914 548 800 (Informaci�n general, actos e incidencias previstas)                                                              
914 548 803 (Concierto de colegios, reserva grupos de lunes a jueves de 9 a 18 y viernes de 9 a 16 horas)   
";915 426 947;info@patrimonionacional.es;/contenido/entidadesYorganismos/MonumentosEdificiosArtisticos
2079;Pante�n de Hombres Ilustres; La construcci�n de este edificio responde a dos de las constantes de fines de siglo: la arquitectura historicista y la escultura funeraria. En �l reposan trece personajes ilustres de la historia pol�tica y militar espa�ola.   Atenci�n telef�nica:    De lunes a s�bado: de 9:30 a 17 horas  Domingos y festivos: de 9 a 14 horas  ;"  De martes a s�bado de 10 a 14 y de 16 a 18,30 horas.  Domingos y festivos de 10 a 15 horas. Tardes cerrado.  Cerrado: 1 y 6 de enero; 1 de mayo; 25 de diciembre de 2014.   Abierto: 15 de mayo; 10 de noviembre y 8, 24 y 31 de diciembre de 2014: los d�as 24 y 31 de diciembre cerradas taquillas a las 14:30 y monumento a las 15 horas.  Abierto horario domingo: 17 y 18 de abril; 2 de mayo; 19 de junio; 15 de agosto; 1 de noviembre y 6 de diciembre de 2014.  Cierre del acceso al monumento media hora antes.  ";; Metro: Atocha  Bus: 10, 14, 24, 32, 37, 54, 57, 141  Renfe: Atocha ; Entrada libre ;1;http://www.madrid.es/vgn-ext-templating/v/index.jsp?vgnextchannel=9e4c43db40317010VgnVCM100000dc0ca8c0RCRD&vgnextoid=361cef4d7f71c010VgnVCM1000000b205a0aRCRD;JULIAN GAYARRE;CALLE;V;3;;;;;MADRID;MADRID;28014;PACIFICO;RETIRO;442121;4473278;40.40622617519116;-3.683413041846525;914 548 800 ;915 426 947;;/contenido/entidadesYorganismos/MonumentosEdificiosArtisticos
3362;Parroquia Santa Cruz;;;; Metro: Sol , Tirso de Molina  Bus: 6 , 17 , 18 , 23 , 26 , 31 , 32 , 35 , 50 , 65 ;;0;http://www.madrid.es/vgn-ext-templating/v/index.jsp?vgnextchannel=9e4c43db40317010VgnVCM100000dc0ca8c0RCRD&vgnextoid=40e0b069a541f010VgnVCM1000000b205a0aRCRD;ATOCHA;CALLE;V;6;;;;;MADRID;MADRID;28012;SOL;CENTRO;440278;4474221;40.414599766147546;-3.705220430502387;913 691 239;;;/contenido/entidadesYorganismos/MonumentosEdificiosArtisticos
2213;Planetario de Madrid; Inaugurado el 29 de septiembre de 1986.  Los programas que se ofrecen en el Planetario se renuevan peri�dicamente con una duraci�n aproximada de 45 minutos. Existen dos programaciones diferentes, una durante el verano y �poca de vacaciones escolares y otra durante el curso escolar. ;;  2 Salas de exposiciones  Sala de astr�nomos  Sala de v�deo  Sala de proyecci�n  Sala de retroproyecci�n  Dotaci�n de ordenadores personales con programas de divulgaci�n y consultas astron�micas  Tienda especializada  Venta de cat�logos de exposiciones del Planetario  ; Metro: M�ndez �lvaro (l�nea 6),   Bus: 148, 156 ;  Horario de e  xposiciones    Del 18 de enero al 10 de abril de 2014   De martes a viernes (d�as lectivos) de 17 a 19:45 horas.  S�bados y domingos de 11 a 13:45 y de 17 a 20:45 horas.    Semana Santa de 2014   11, 15 y 16 de abril de 9:30 a 13:45 y de 17 a 20:45 hora.  12, 13, 17, 18, 19 y 20 de abril de 11 a 13:45 y de 17 a 19:45 horas.    Del 22 de abril al 20 de junio de 2014   De martes a viernes (d�as lectivos): de 17 a 19:45 horas.  S�bados, domingos y festivos de 11 a 13:45 y de 17 a 20:45 horas.    Del 21 de junio al 21 de septiembre   De martes a viernes: 9:30 a 13:45 y de 17 a 19:45 horas  S�bados, domingos y festivos de 11 a 13:45 y de 17 a 20:45 horas.      D�as de cierre    Todos los lunes del a�o.  Del 6 al 17 de enero por revisi�n t�cnica anual.  ;0;http://www.madrid.es/vgn-ext-templating/v/index.jsp?vgnextchannel=9e4c43db40317010VgnVCM100000dc0ca8c0RCRD&vgnextoid=c9c5b069a541f010VgnVCM1000000b205a0aRCRD;PLANETARIO;AVENIDA;V;16;;;;;MADRID;MADRID;28045;LEGAZPI;ARGANZUELA;441977;4471730;40.39227092120195;-3.684968648157021;"914 673 461 (Reserva Grupos)                                                                                                     
914 673 898 (Contestador autom�tico de informaci�n)";;buzon@planetmad.es;/contenido/entidadesYorganismos/Planetarios
3359;Real Bas�lica San Francisco el Grande; Conjunto conventual que sustituy� al monasterio franciscano medieval, construido por Francisco de las Cabezas entre 1761 y 1768, que fue relevado por Antonio Polo y que concluye Francisco Sabatini en 1784 donde se exponen colecciones de pinturas de los siglos XVII al XIX. ;  Museo:  de martes a viernes de 10:30 a 12:30 y de 16 a 18 horas. S�bados de 10:30 a 12:30 y de 16 a 18 horas (si no se ofician actos religiosos). Julio y agosto: de martes a domingo de 10:30 a 12:30 y de 17 a 19 horas. ;; Metro: La Latina (l�nea 5) , Puerta de Toledo (l�nea 5)  Bus:  3, 17, 18, 23, 31, 35, 36, 41, 50, 60, 65, 148, 749, C1, C2 ;;0;http://www.madrid.es/vgn-ext-templating/v/index.jsp?vgnextchannel=9e4c43db40317010VgnVCM100000dc0ca8c0RCRD&vgnextoid=ef8d0713fb71c010VgnVCM1000000b205a0aRCRD;SAN BUENAVENTURA;CALLE;V;1;;;;;MADRID;MADRID;28005;PALACIO;CENTRO;439487;4473811;40.41084005024222;-3.714503845728281;913 653 800;;;/contenido/entidadesYorganismos/MonumentosEdificiosArtisticos
2087;Real F�brica de Tapices;; De lunes a viernes de 10 a 14 horas.   Cerrado: s�bados, domingos, Semana Santa y agosto. ;Salones para eventos; Metro: Men�ndez Pelayo (l�nea 1)  Bus: 10, 14, 26, 32, C ;;0;http://www.madrid.es/vgn-ext-templating/v/index.jsp?vgnextchannel=9e4c43db40317010VgnVCM100000dc0ca8c0RCRD&vgnextoid=53cbff632081c010VgnVCM1000000b205a0aRCRD;FUENTERRABIA;CALLE;V;2;;;;;MADRID;MADRID;28014;PACIFICO;RETIRO;442197;4473262;40.406087329011655;-3.682515969574079;914 340 550;915 513 409;info@realfabricadetapices.com;/contenido/entidadesYorganismos/MonumentosEdificiosArtisticos
3349;Real Monasterio de la Encarnaci�n; Edificio constru�do por Juan G�mez de Mora de 1611 a 1616 como monasterio anejo al Alc�zar Real, modelo de lo que se ha dado en llamar barroco madrile�o. Cuenta con la reliquia de San Pantale�n. ;"  De martes a s�bado: de 10 a 14 horas y de 16 a 18:30 horas  Domingos y festivos: de 10 a 15 horas y tardes cerrado  Cierre taquillas, 45 minutos antes  Cerrado: 1 y 6 de enero; Semana Santa (de 16 al 19 de abril, inclusive); 1 de mayo; 27 de julio; 10 de noviembre; 24, 25 y 31 de diciembre de 2014  Abierto: 15 de mayo y 8 de diciembre de 2014  Abierto horario domingo: 2 de mayo; 19 de junio; 15 de agosto; 1 de noviembre y 6 de diciembre de 2014    Atenci�n telef�nica    De lunes a s�bados: de 9:30 a 17 horas  Domingos y festivos: de 9 a 14 horas  ";  Biblioteca  Publicaciones  Tienda  Librer�a  Visitas guiadas  ; Metro:  �pera (l�neas 2, 5 y Ramal �pera Pr�ncipe P�o), Plaza de Espa�a (l�nea 3)  Bus:  1, 2, 3, 25, 39, 44, 46, 74, 75, 133 , 138, 147, 148, 202 , 749, C1, C2 ;;1;http://www.madrid.es/vgn-ext-templating/v/index.jsp?vgnextchannel=9e4c43db40317010VgnVCM100000dc0ca8c0RCRD&vgnextoid=72ad0713fb71c010VgnVCM1000000b205a0aRCRD;ENCARNACION;PLAZA;V;1;;;;;MADRID;MADRID;28013;PALACIO;CENTRO;439744;4474790;40.41967800877382;-3.711567962866152;914 548 800 ;915 426 947;;/contenido/entidadesYorganismos/MonumentosEdificiosArtisticos
4707297;Real Monasterio de Santa Isabel; El Real Monasterio de Santa Isabel est� situado en Madrid, dentro de la ciudad hist�rica, en una gran manzana, pr�xima a Atocha.  Santa Isabel agrupa dos fundaciones, un colegio de ni�as, establecido por Felipe II, y un convento de clausura de monjas agustinas recoletas, fundado por la esposa de Felipe III, do�a Margarita de Austria.   La arquitectura de la iglesia se debe a G�mez de Mora, de mediados del siglo XVIII. En la clausura se conservan numerosas obras pict�ricas de los siglos XVII y XVIII. ; El acceso al templo s�lo es posible en horario de culto ;;;;0;http://www.madrid.es/vgn-ext-templating/v/index.jsp?vgnextchannel=9e4c43db40317010VgnVCM100000dc0ca8c0RCRD&vgnextoid=545b544a249c6110VgnVCM1000000b205a0aRCRD;SANTA ISABEL;CALLE;V;48;;;;;MADRID;MADRID;28012;EMBAJADORES;CENTRO;440765;4473944;40.41213027498252;-3.6994547941964946;;;;/contenido/entidadesYorganismos/MonumentosEdificiosArtisticos
2061;Real Sitio de El Pardo; Recinto en el que se conserva el Palacio, construido sobre el castillo del siglo XV, la Casita del Pr�ncipe, del siglo XVIII y la Quinta del Duque de Arco (Palacete que fue Casa de Labor y sus tierras). Desde 1983 ha sido adecuado para residencia de Jefes de Estado extranjeros en visita oficial. ;"  De octubre a marzo: todos los d�as de 10 a 18 horas  De abril a septiembre: todos los d�as de 10 a 20 horas  Cerrado: 1, 6 de enero; 1 de mayo; 24, 25 y 31 de diciembre de 2014.   Abierto: 17 y 18 de abril; 2 y 15 de mayo; 19 de junio; 15 de agosto; 1 y 10 de noviembre; 6 y 8 de diciembre de 2014.   ";;Bus: 601 (Madrid - Colonia Mingorrubio);El palacio dispone de helipuerto civil;1;http://www.madrid.es/vgn-ext-templating/v/index.jsp?vgnextchannel=9e4c43db40317010VgnVCM100000dc0ca8c0RCRD&vgnextoid=9f9def4d7f71c010VgnVCM1000000b205a0aRCRD;MANUEL ALONSO;CALLE;V;S/N;;;;;MADRID;MADRID;28048;EL PARDO;FUENCARRAL-EL PARDO;434323;4486052;40.52071790499227;-3.776630886241239;913 761 500 (Informaci�n y concierto de visitas, de lunes a viernes de 10:30 a 17 horas);913 761 287 / 913 760 452;;/contenido/entidadesYorganismos/MonumentosEdificiosArtisticos
20605;Templo de Debod; Templo egipcio dedicado a Am�n de Debod y a Isis, construido entre 185  a. de C.  y el siglo  I  de la Era. Fue donado por Egipto a Espa�a en 1968, en agradecimiento por la ayuda en el salvamento de los templos de Abu Simbel. ;  De 1 de octubre a 31 de marzo   De martes a viernes de 9:45 a 13:45 y de 16:15 a 18:15 horas  S�bados, domingos y festivos de 9:30 a 20 hora    De 1 de abril a 30 de septiembre   De martes a viernes de 10 a 14 y de 18 a 20 horas  S�bados, domingos y festivos de 9:30 a 20 horas.     El templo permanece cerrado los lunes y los festivos 1 de enero, 1 de mayo y 25 de diciembre.  �ltimo pase de visita 15 minutos antes del cierre.  Este horario y la apertura de salas pueden sufrir modificaciones, por favor, conf�rmelo en el tel�fono de informaci�n del museo.  ;  No cuenta con accesos adaptados para minusv�lidos   Exposici�n permanente : Debod un templo ptolemaico  Actividades did�cticas: talleres para grupos escolares, talleres de profesores, visitas guiadas, talleres para familias.  Se pueden realizar fotograf�as o grabaciones de v�deo libremente en el exterior o en el interior del templo, siempre y cuando no se utilicen flash o tr�pode y su fin no sea comercial.  ;  Metro:  Plaza de Espa�a (l�neas 3 y 10) y Ventura Rodr�guez (l�nea 3)   Autob�s    L�nea 74 (paradas en la calle Ferraz, frente al Templo, y en la calle Pintor Rosales)  L�neas 25, 39, 46, 75, 138 y C1 (parada en Cuesta de San Vicente-Cadarso)  L�neas 3, 44, 133, 148 y C2 (parada en Plaza de Espa�a)  L�neas 1, 2, 74 (parada en Princesa-Ventura Rodr�guez)    Renfe:  Pr�ncipe P�o   Bus tur�stico:  Ruta 1. PARADA 10 - Templo de Debod   Otras formas de acceso:    Aparcamiento de bicicletas: Calle Ferraz, junto al acceso principal a los jardines del Templo.  Aparcamiento de coches: dentro del �rea de Estacionamiento Regulado de la ciudad de Madrid.  El aparcamiento p�blico m�s cercano est� situado en Plaza de Espa�a.  ;;0;http://www.madrid.es/vgn-ext-templating/v/index.jsp?vgnextchannel=9e4c43db40317010VgnVCM100000dc0ca8c0RCRD&vgnextoid=13b432df1d51c010VgnVCM2000000c205a0aRCRD;FERRAZ;CALLE;V;1;;;;;MADRID;MADRID;28008;CASA DE CAMPO;MONCLOA-ARAVACA;439327;4475301;40.42425096551599;-3.716531855540272;913 667 415 (Museo de San Isidro / Templo de Debod));;templodebod@madrid.es;/contenido/entidadesYorganismos/MonumentosEdificiosArtisticos
7071384;Yacimiento paleontol�gico. Estaci�n de Metro Carpetana;; Visitas todos los d�as durante la apertura de la estaci�n, de 6 a 1:30 horas ;;;  Yacimiento paleontol�gico en la estaci�n de Carpetana    Durante las obras de remodelaci�n de la estaci�n de Carpetana se descubrieron restos paleontol�gicos con valiosos hallazgos del mioceno lo que ha hecho posible una reconstrucci�n de los paleoambientes en dos yacimientos verticales.   El primero de los espacios, cuenta con un panel en vinilo con im�genes que representan el paleoambiente existente hace m�s de 15 millones de a�os con restos mayoritariamente correspondientes a mastodontes de la especie Gonphotherium aungustidens. Adem�s, en esta misma zona expositiva, se ha incluido una reconstrucci�n de un ciervo denominado Heteroprox con los ambientes y especies vegetales existentes entonces en Carpetana, ya que se han podido conocer gracias a los f�siles de polen y animales recuperados en la excavaci�n.   El segundo espacio recrea el paleoambiente de hace aproximadamente 14 millones de a�os, y se encuentran representados algunas faunas halladas en las excavaciones como el oso - perro, el oso - lobo, un felino situado en la parte superior de un �rbol, una tortuga gigante, rinocerontes y un jabal�.  ;1;http://www.madrid.es/vgn-ext-templating/v/index.jsp?vgnextchannel=9e4c43db40317010VgnVCM100000dc0ca8c0RCRD&vgnextoid=05fbb57fd3c70410VgnVCM1000000b205a0aRCRD;VIA CARPETANA;CALLE;V;328;;;;;MADRID;MADRID;28047;ALUCHE;LATINA;437061;4471685;40.39150793405899;-3.7428839286586184;902 444 403 (Informaci�n);;;/contenido/entidadesYorganismos/Museos
